{
"type": "FeatureCollection",
"name": "bathymetry_ridges",
"features": [
{ "type": "Feature", "properties": { "fid": 1, "name": "Guardian creek", "peak_elevation_m": -300, "feature_type": "ridge", "falloff_km": 1.5, "shelf_multiplier": 2.0 }, "geometry": { "type": "LineString", "coordinates": [ [ 57880.594449691852788, 74215.211851429383387 ], [ 57765.523249407764524, 74100.140651145295124 ], [ 57707.987649265713117, 73927.533850719148177 ], [ 57707.987649265713117, 73812.462650435059913 ], [ 57707.987649265713117, 73697.391450150957098 ], [ 57707.987649265713117, 73524.784649724810151 ], [ 57707.987649265713117, 73409.713449440721888 ], [ 57707.987649265713117, 73294.642249156633625 ], [ 57707.987649265713117, 73179.57104887253081 ], [ 57707.987649265713117, 73006.964248446383863 ], [ 57707.987649265713117, 72891.893048162295599 ], [ 57707.987649265713117, 72776.821847878192784 ], [ 57650.452049123661709, 72661.750647594104521 ], [ 57535.380848839573446, 72604.215047452060389 ], [ 57477.845248697522038, 72489.143847167957574 ], [ 57420.309648555470631, 72374.072646883869311 ], [ 57362.774048413426499, 72259.001446599766496 ], [ 57247.70284812933096, 72259.001446599766496 ], [ 57247.70284812933096, 72143.930246315678232 ], [ 57132.63164784523542, 72086.394646173634101 ], [ 57017.560447561147157, 72028.859046031575417 ], [ 56844.95364713500021, 72028.859046031575417 ], [ 56729.882446850904671, 71971.323445889531286 ], [ 56614.811246566809132, 71971.323445889531286 ], [ 56499.740046282713593, 71913.787845747487154 ], [ 56384.668845998618053, 71913.787845747487154 ], [ 56269.59764571452979, 71856.252245605443022 ], [ 56154.526445430426975, 71856.252245605443022 ], [ 55981.919645004287304, 71798.716645463398891 ], [ 55866.848444720191765, 71741.181045321340207 ], [ 55751.777244436103501, 71741.181045321340207 ], [ 55694.241644294052094, 71626.109845037251944 ], [ 55579.170444009956555, 71568.574244895207812 ], [ 55464.099243725861015, 71568.574244895207812 ], [ 55406.563643583809608, 71453.503044611104997 ], [ 55233.956843157669937, 71338.431844327016734 ], [ 55176.421243015618529, 71223.360644042913918 ], [ 55061.350042731530266, 71165.825043900869787 ], [ 54946.278842447434727, 71108.289443758825655 ], [ 54888.743242305383319, 70993.21824347472284 ], [ 54773.672042021295056, 70878.147043190634577 ], [ 54658.600841737192241, 70763.075842906546313 ], [ 54543.529641453103977, 70648.004642622443498 ], [ 54485.99404131105257, 70532.933442338340683 ], [ 54370.92284102695703, 70417.86224205425242 ], [ 54255.851640742868767, 70360.326641912208288 ], [ 54140.780440458765952, 70302.791041770164156 ], [ 54025.709240174677689, 70187.719841486061341 ], [ 53853.102439748530742, 70187.719841486061341 ], [ 53738.031239464442478, 70130.184241344017209 ], [ 53622.960039180339663, 70015.113041059928946 ], [ 53507.8888388962514, 69957.577440917870263 ], [ 53392.817638612148585, 69900.041840775826131 ], [ 53335.282038470104453, 69727.435040349679184 ], [ 53220.210838186008914, 69727.435040349679184 ], [ 53162.675238043957506, 69612.363840065590921 ], [ 53105.139637901913375, 69497.292639781488106 ], [ 53105.139637901913375, 69382.221439497399842 ], [ 53047.604037759869243, 69267.150239213311579 ], [ 52990.068437617825111, 69152.079038929208764 ], [ 52932.532837475773704, 69037.007838645120501 ], [ 52874.997237333722296, 68921.936638361017685 ], [ 52874.997237333722296, 68806.865438076929422 ], [ 52759.926037049634033, 68691.794237792826607 ], [ 52702.390436907582625, 68576.723037508738344 ], [ 52644.854836765531218, 68461.651837224635528 ], [ 52587.319236623487086, 68346.580636940547265 ], [ 52472.248036339391547, 68346.580636940547265 ], [ 52414.712436197347415, 68231.509436656459002 ], [ 52357.176836055296008, 68116.438236372356187 ], [ 52184.570035629156337, 68001.367036088253371 ], [ 52069.498835345060797, 67943.83143594620924 ], [ 51954.427635060965258, 67886.295835804165108 ], [ 51839.356434776869719, 67828.760235662120976 ], [ 51724.285234492781456, 67771.224635520076845 ], [ 51551.678434066634509, 67656.15343523597403 ], [ 51436.60723378253897, 67656.15343523597403 ], [ 51321.53603349844343, 67598.617835093929898 ], [ 51206.464833214347891, 67483.546634809841635 ], [ 51091.393632930252352, 67426.011034667782951 ], [ 50918.786832504112681, 67310.939834383694688 ], [ 50803.715632220017142, 67253.404234241636004 ], [ 50746.18003207797301, 67138.333033957547741 ], [ 50573.573231651826063, 67023.261833673459478 ], [ 50516.037631509781932, 66908.190633389356663 ], [ 50400.966431225686392, 66850.655033247312531 ], [ 50228.359630799546721, 66735.583832963224268 ], [ 50113.288430515443906, 66735.583832963224268 ], [ 50055.752830373399775, 66620.512632679121452 ], [ 49940.681630089304235, 66562.977032537077321 ], [ 49825.610429805208696, 66505.441432395018637 ], [ 49710.539229521120433, 66447.905832252974506 ], [ 49595.468029237017618, 66390.370232110930374 ], [ 49480.396828952929354, 66275.299031826842111 ], [ 49365.325628668826539, 66275.299031826842111 ], [ 49250.254428384738276, 66217.763431684783427 ], [ 49192.718828242686868, 66102.692231400695164 ], [ 49077.647627958591329, 66102.692231400695164 ], [ 48962.576427674503066, 66045.156631258651032 ], [ 48847.50522739040025, 66045.156631258651032 ], [ 48732.434027106311987, 66045.156631258651032 ], [ 48559.82722668016504, 66045.156631258651032 ], [ 48444.756026396069501, 66045.156631258651032 ], [ 48329.684826111973962, 66045.156631258651032 ], [ 48214.613625827885699, 66045.156631258651032 ], [ 48099.542425543782883, 65987.6210311166069 ], [ 47984.47122525969462, 65930.085430974548217 ], [ 47811.864424833547673, 65872.549830832504085 ], [ 47696.79322454945941, 65815.014230690459954 ], [ 47524.186424123312463, 65815.014230690459954 ], [ 47351.579623697165516, 65815.014230690459954 ], [ 47178.972823271025845, 65815.014230690459954 ], [ 47063.901622986930306, 65815.014230690459954 ], [ 46948.830422702842043, 65815.014230690459954 ], [ 46833.759222418739228, 65757.47863054840127 ], [ 46718.688022134650964, 65757.47863054840127 ], [ 46603.616821850548149, 65699.943030406357138 ], [ 46488.545621566459886, 65699.943030406357138 ], [ 46373.474421282364347, 65699.943030406357138 ], [ 46258.403220998268807, 65699.943030406357138 ], [ 46143.332020714173268, 65699.943030406357138 ], [ 46028.260820430077729, 65699.943030406357138 ], [ 45913.18962014598219, 65699.943030406357138 ], [ 45798.11841986188665, 65757.47863054840127 ], [ 45683.047219577798387, 65815.014230690459954 ], [ 45567.976019293695572, 65872.549830832504085 ], [ 45510.44041915165144, 65987.6210311166069 ], [ 45395.369218867555901, 66045.156631258651032 ], [ 45280.298018583460362, 66102.692231400695164 ], [ 45165.226818299364822, 66217.763431684783427 ], [ 45050.155618015269283, 66275.299031826842111 ], [ 44935.084417731173744, 66390.370232110930374 ], [ 44877.548817589129612, 66505.441432395018637 ], [ 44762.477617305034073, 66562.977032537077321 ], [ 44704.942017162989941, 66735.583832963224268 ], [ 44589.870816878887126, 66793.119433105268399 ], [ 44589.870816878887126, 66908.190633389356663 ], [ 44589.870816878887126, 67023.261833673459478 ], [ 44532.335216736842995, 67138.333033957547741 ], [ 44417.264016452747455, 67253.404234241636004 ], [ 44417.264016452747455, 67426.011034667782951 ], [ 44417.264016452747455, 67541.082234951885766 ], [ 44417.264016452747455, 67656.15343523597403 ], [ 44417.264016452747455, 67771.224635520076845 ], [ 44359.728416310703324, 67886.295835804165108 ], [ 44359.728416310703324, 68001.367036088253371 ], [ 44359.728416310703324, 68116.438236372356187 ], [ 44359.728416310703324, 68231.509436656459002 ], [ 44359.728416310703324, 68346.580636940547265 ], [ 44359.728416310703324, 68461.651837224635528 ], [ 44302.192816168651916, 68576.723037508738344 ], [ 44244.657216026607784, 68749.329837934870739 ], [ 44187.121615884563653, 68921.936638361017685 ], [ 44129.586015742512245, 69037.007838645120501 ], [ 44129.586015742512245, 69152.079038929208764 ], [ 44072.050415600460838, 69267.150239213311579 ], [ 44072.050415600460838, 69439.757039639443974 ], [ 43956.979215316372574, 69497.292639781488106 ], [ 43956.979215316372574, 69612.363840065590921 ], [ 43956.979215316372574, 69727.435040349679184 ], [ 43899.443615174321167, 69842.506240633781999 ], [ 43841.908015032277035, 69957.577440917870263 ], [ 43726.836814748181496, 70015.113041059928946 ], [ 43726.836814748181496, 70130.184241344017209 ], [ 43611.765614464085957, 70187.719841486061341 ], [ 43496.694414179990417, 70187.719841486061341 ], [ 43439.158814037946286, 70302.791041770164156 ], [ 43381.623213895894878, 70417.86224205425242 ], [ 43266.552013611799339, 70475.397842196296551 ], [ 43209.016413469755207, 70590.469042480399366 ], [ 43093.945213185659668, 70705.54024276448763 ], [ 43093.945213185659668, 70820.611443048590445 ], [ 42978.874012901564129, 70935.682643332678708 ], [ 42978.874012901564129, 71108.289443758825655 ], [ 42863.802812617468589, 71165.825043900869787 ], [ 42806.267212475417182, 71280.89624418495805 ], [ 42748.73161233337305, 71395.967444469060865 ], [ 42748.73161233337305, 71511.03864475316368 ], [ 42748.73161233337305, 71626.109845037251944 ], [ 42748.73161233337305, 71798.716645463398891 ], [ 42748.73161233337305, 71913.787845747487154 ], [ 42748.73161233337305, 72028.859046031575417 ], [ 42748.73161233337305, 72143.930246315678232 ], [ 42748.73161233337305, 72259.001446599766496 ], [ 42748.73161233337305, 72374.072646883869311 ], [ 42748.73161233337305, 72489.143847167957574 ], [ 42748.73161233337305, 72604.215047452060389 ], [ 42748.73161233337305, 72719.286247736148653 ], [ 42748.73161233337305, 72834.357448020251468 ], [ 42748.73161233337305, 72949.428648304339731 ], [ 42748.73161233337305, 73064.499848588442546 ], [ 42748.73161233337305, 73179.57104887253081 ], [ 42633.660412049277511, 73237.106649014574941 ], [ 42576.124811907226103, 73352.177849298677756 ], [ 42518.589211765181972, 73467.24904958276602 ], [ 42518.589211765181972, 73582.320249866868835 ], [ 42461.05361162313784, 73697.391450150957098 ], [ 42403.518011481086432, 73812.462650435059913 ], [ 42288.446811196990893, 73927.533850719148177 ], [ 42288.446811196990893, 74042.605051003250992 ], [ 42230.911211054946762, 74157.676251287339255 ], [ 42173.37561091290263, 74272.747451571427519 ], [ 42115.840010770851222, 74387.818651855530334 ], [ 42058.304410628799815, 74502.889852139618597 ], [ 42058.304410628799815, 74617.961052423721412 ], [ 42058.304410628799815, 74733.032252707809675 ], [ 41943.233210344711551, 74790.567852849868359 ], [ 41943.233210344711551, 74963.174653276000754 ], [ 41885.697610202660144, 75135.781453702147701 ], [ 41885.697610202660144, 75250.852653986235964 ], [ 41885.697610202660144, 75365.923854270338779 ], [ 41885.697610202660144, 75480.995054554427043 ], [ 41885.697610202660144, 75596.066254838529858 ], [ 41885.697610202660144, 75711.137455122618121 ], [ 41885.697610202660144, 75826.208655406720936 ], [ 41885.697610202660144, 75941.2798556908092 ], [ 41885.697610202660144, 76056.351055974897463 ], [ 41885.697610202660144, 76171.422256259000278 ], [ 41885.697610202660144, 76344.029056685147225 ], [ 41943.233210344711551, 76459.100256969235488 ], [ 41943.233210344711551, 76574.171457253338303 ], [ 41943.233210344711551, 76689.242657537426567 ], [ 41943.233210344711551, 76861.849457963573514 ], [ 41943.233210344711551, 77034.456258389705908 ], [ 41885.697610202660144, 77149.527458673808724 ], [ 41885.697610202660144, 77264.598658957896987 ], [ 41828.162010060616012, 77379.669859241999802 ], [ 41770.626409918564605, 77494.741059526088065 ], [ 41655.555209634469065, 77552.276659668132197 ], [ 41598.019609492424934, 77667.347859952235012 ], [ 41540.484009350373526, 77782.419060236323276 ], [ 41540.484009350373526, 77897.490260520426091 ], [ 41425.412809066285263, 78012.561460804514354 ], [ 41425.412809066285263, 78127.632661088617169 ], [ 41367.877208924233855, 78242.703861372705433 ], [ 41367.877208924233855, 78357.775061656808248 ], [ 41310.341608782182448, 78472.846261940896511 ], [ 41310.341608782182448, 78587.917462224999326 ], [ 41252.806008640138316, 78702.98866250908759 ], [ 41252.806008640138316, 78875.595462935234536 ], [ 41252.806008640138316, 78990.6666632193228 ], [ 41252.806008640138316, 79105.737863503425615 ], [ 41252.806008640138316, 79220.809063787513878 ], [ 41252.806008640138316, 79393.415864213660825 ], [ 41252.806008640138316, 79508.487064497749088 ], [ 41252.806008640138316, 79623.558264781851904 ], [ 41310.341608782182448, 79738.629465065940167 ], [ 41310.341608782182448, 79853.700665350042982 ], [ 41310.341608782182448, 79968.771865634131245 ], [ 41310.341608782182448, 80083.843065918219509 ], [ 41367.877208924233855, 80198.914266202322324 ], [ 41367.877208924233855, 80313.985466486410587 ] ] } },
{ "type": "Feature", "properties": { "fid": 2, "name": "North camling ridge 1", "peak_elevation_m": 20, "feature_type": "ridge", "falloff_km": 0.25, "shelf_multiplier": 0.5 }, "geometry": { "type": "LineString", "coordinates": [ [ 23100.324163824207062, 57227.825909489794867 ], [ 22927.717363398063753, 57285.361509631846275 ], [ 22755.110562971924082, 57285.361509631846275 ], [ 22524.968162403733004, 57285.361509631846275 ], [ 22352.361361977589695, 57285.361509631846275 ], [ 22237.290161693494156, 57285.361509631846275 ], [ 22122.218961409402255, 57285.361509631846275 ], [ 22007.147761125306715, 57285.361509631846275 ], [ 21892.076560841211176, 57285.361509631846275 ], [ 21777.005360557115637, 57285.361509631846275 ], [ 21661.934160273020098, 57227.825909489794867 ], [ 21546.862959988924558, 57170.290309347750735 ], [ 21431.791759704832657, 57170.290309347750735 ], [ 21316.720559420737118, 57170.290309347750735 ], [ 21201.649359136641579, 57227.825909489794867 ], [ 21086.578158852546039, 57285.361509631846275 ], [ 20971.5069585684505, 57285.361509631846275 ], [ 20856.435758284358599, 57285.361509631846275 ], [ 20741.36455800026306, 57285.361509631846275 ], [ 20626.29335771616752, 57285.361509631846275 ], [ 20453.686557290024211, 57342.897109773897682 ], [ 20338.615357005928672, 57400.432709915941814 ], [ 20223.544156721833133, 57400.432709915941814 ], [ 20108.472956437741232, 57515.503910200037353 ], [ 19935.866156011597923, 57515.503910200037353 ] ] } },
{ "type": "Feature", "properties": { "fid": 3, "name": "North Caming ridge 2", "peak_elevation_m": 23, "feature_type": "ridge", "falloff_km": 0.35, "shelf_multiplier": 0.5 }, "geometry": { "type": "LineString", "coordinates": [ [ 16483.730147488749935, 59644.321115455793915 ], [ 16426.194547346702166, 59759.392315739889455 ], [ 16311.123347062606626, 59759.392315739889455 ], [ 16196.052146778511087, 59874.463516023984994 ], [ 16080.980946494419186, 59874.463516023984994 ], [ 15965.909746210323647, 59931.999116166029125 ], [ 15850.838545926228107, 59931.999116166029125 ], [ 15735.767345642132568, 59989.534716308073257 ], [ 15620.696145358037029, 60047.070316450124665 ], [ 15505.62494507394149, 60104.605916592176072 ], [ 15390.553744789849588, 60162.141516734220204 ], [ 15275.482544505754049, 60162.141516734220204 ], [ 15102.87574407961074, 60162.141516734220204 ], [ 14987.804543795515201, 60277.212717018315743 ], [ 14872.733343511419662, 60277.212717018315743 ], [ 14757.662143227327761, 60334.748317160359875 ], [ 14642.590942943232221, 60392.283917302411282 ], [ 14527.519742659136682, 60392.283917302411282 ], [ 14412.448542375041143, 60392.283917302411282 ], [ 14297.377342090945604, 60507.355117586499546 ], [ 14182.306141806850064, 60564.890717728550953 ], [ 14067.234941522758163, 60564.890717728550953 ], [ 13952.163741238662624, 60622.426317870602361 ], [ 13779.556940812519315, 60679.961918012646493 ], [ 13722.021340670471545, 60795.033118296742032 ], [ 13549.414540244328236, 60795.033118296742032 ], [ 13434.343339960234516, 60910.104318580837571 ], [ 13261.736539534093026, 60910.104318580837571 ], [ 13204.200939392045257, 61025.17551886493311 ], [ 13089.129739107949717, 61082.711119006977242 ], [ 12974.058538823855997, 61082.711119006977242 ], [ 12858.987338539760458, 61197.782319291072781 ], [ 12801.451738397712688, 61312.85351957516832 ], [ 12801.451738397712688, 61427.92471985926386 ], [ 12743.916138255664919, 61542.995920143359399 ], [ 12628.844937971571198, 61542.995920143359399 ], [ 12571.309337829523429, 61658.067120427454938 ], [ 12513.773737687475659, 61773.138320711550477 ], [ 12398.70253740338012, 61773.138320711550477 ], [ 12341.16693726133235, 61888.209520995646017 ], [ 12283.6313371192864, 62003.28072127973428 ], [ 12168.56013683519086, 62118.351921563837095 ], [ 12111.024536693143091, 62233.423121847925358 ] ] } },
{ "type": "Feature", "properties": { "fid": 4, "name": "South Barrier", "peak_elevation_m": 20, "feature_type": "ridge", "falloff_km": 1.0, "shelf_multiplier": 0.25 }, "geometry": { "type": "LineString", "coordinates": [ [ -49854.8168162919319, -28557.753902302916686 ], [ -49854.8168162919319, -28327.611501734725607 ], [ -49854.8168162919319, -27982.397900882438989 ], [ -49624.674415723740822, -27637.184300030159648 ], [ -49509.603215439645282, -27291.97069917787303 ], [ -49509.603215439645282, -27061.828298609681951 ], [ -49509.603215439645282, -26831.685898041490873 ], [ -49509.603215439645282, -26601.54349747330707 ], [ -49739.745616007836361, -26371.401096905112354 ], [ -49969.888016576020163, -26141.258696336924913 ], [ -50200.030417144211242, -26141.258696336924913 ], [ -50545.24401799649786, -26141.258696336924913 ], [ -50775.386418564688938, -26141.258696336924913 ], [ -51005.528819132880017, -26141.258696336924913 ], [ -51235.671219701071095, -26141.258696336924913 ], [ -51580.884820553350437, -26141.258696336924913 ], [ -51811.027221121541515, -26141.258696336924913 ], [ -52041.169621689732594, -26026.187496052829374 ], [ -52271.312022257923672, -25911.116295768733835 ], [ -52501.454422826114751, -25796.045095484638296 ], [ -52731.596823394298553, -25796.045095484638296 ], [ -52961.739223962489632, -25680.973895200542756 ], [ -53191.88162453068071, -25450.831494632355316 ], [ -53422.024025098871789, -25335.760294348259777 ], [ -53537.095225382967328, -25105.617893780068698 ], [ -53652.166425667062867, -24875.475493211881258 ], [ -53652.166425667062867, -24645.333092643690179 ], [ -53767.237625951151131, -24415.190692075499101 ], [ -53767.237625951151131, -24185.04829150731166 ], [ -53882.308826235253946, -23954.905890939120582 ], [ -53882.308826235253946, -23609.692290086833964 ], [ -53882.308826235253946, -23379.549889518646523 ], [ -53882.308826235253946, -23149.407488950455445 ], [ -53882.308826235253946, -22919.265088382268004 ], [ -53882.308826235253946, -22689.122687814076926 ], [ -53882.308826235253946, -22458.980287245885847 ] ] } }
]
}
