{
"type": "FeatureCollection",
"name": "bathymetry_zones",
"features": [
{ "type": "Feature", "properties": { "fid": 1, "name": "Bridge Base", "feature_type": "plateau", "target_elevation_m": -27, "amplitude_scale": 0.8, "edge_transition_km": 2 }, "geometry": { "type": "Polygon", "coordinates": [ [ [ 805.279108781058312, 37435.579460622597253 ], [ 977.885909206726183, 37435.5794606254276 ], [ 1150.492709632972719, 37435.57946062967676 ], [ 1265.563909916950479, 37435.579460626846412 ], [ 1438.170710343166547, 37493.115060767508112 ], [ 1610.777510769235278, 37493.115060763258953 ], [ 1840.919911337678059, 37493.115060768926924 ], [ 1955.991111621073742, 37493.115060768926924 ], [ 2071.062311905925526, 37550.650660909588623 ], [ 2186.133512190135207, 37550.650660909588623 ], [ 2301.20471247390833, 37608.186261051669135 ], [ 2416.27591275761597, 37723.257461335830158 ], [ 2531.347113042130786, 37838.32866161999118 ], [ 2588.882713184084423, 37953.399861902733392 ], [ 2703.953913468365499, 38126.006662330393738 ], [ 2819.025113752481502, 38183.542262472474249 ], [ 2934.096314036367858, 38241.077862614554761 ], [ 3049.167514320694409, 38298.613462758046808 ], [ 3221.774314747023709, 38298.613462753804924 ], [ 3279.309914888685398, 38413.684663040796295 ], [ 3394.381115173144735, 38471.220263181457995 ], [ 3509.452315456862834, 38471.220263182876806 ], [ 3624.5235157411621, 38471.220263182876806 ], [ 3739.594716025425441, 38528.755863323538506 ], [ 3912.201516451393218, 38586.291463467037829 ], [ 4084.808316877552443, 38701.362663752610388 ], [ 4199.879517161857621, 38701.362663751198852 ], [ 4314.950717445625742, 38816.433864035359875 ], [ 4430.021917729844063, 38873.96946417743311 ], [ 4545.093118013953244, 38989.040664460182597 ], [ 4660.164318298123362, 39046.576264602263109 ], [ 4660.164318298096987, 39161.647464889254479 ], [ 4717.69991843940079, 39334.254265314077202 ], [ 4775.235518581990618, 39449.325465595407877 ], [ 4832.771118724050211, 39621.932266025898571 ], [ 4832.771118724379448, 39737.00346630722197 ], [ 4832.771118723904692, 39852.074666592801805 ], [ 4890.306718866249867, 39967.145866875544016 ], [ 4890.306718866076153, 40082.217067159705039 ], [ 4890.306718866560914, 40197.288267445284873 ], [ 4890.306718866310803, 40312.359467728027084 ], [ 4890.306718865997027, 40427.430668012188107 ], [ 4890.306718866281699, 40542.50186829634913 ], [ 4890.306718866170741, 40715.108668721171853 ], [ 4890.30671886681921, 40830.179869008163223 ], [ 4947.842319008134837, 40945.251069290905434 ], [ 4947.842319008217601, 41060.322269576485269 ], [ 4947.842319007482729, 41232.929070001307991 ], [ 5062.913519292153069, 41290.464670143388503 ], [ 5062.913519292502315, 41405.535870427549526 ], [ 5120.449119434401837, 41578.142670849541901 ], [ 5177.98471957653237, 41693.213871136533271 ], [ 5235.520319718305473, 41808.285071420694294 ], [ 5350.591520002451944, 41923.356271710523288 ], [ 5408.127120144486071, 42038.42747198901634 ], [ 5465.662720286861259, 42153.498672270347015 ], [ 5580.733920571448834, 42268.569872557338385 ], [ 5695.805120854604866, 42383.641072844329756 ], [ 5810.876321139146057, 42498.712273125660431 ], [ 5810.876321139096945, 42613.783473409821454 ], [ 5925.947521423287071, 42613.783473412651801 ], [ 5983.483121565022884, 42786.390273837474524 ], [ 6098.554321849243934, 42843.9258739781435 ], [ 6156.089921991479059, 42958.997074262304523 ], [ 6271.161122275317211, 43016.532674404385034 ], [ 6328.6967224173668, 43131.603874687127245 ], [ 6443.76792270223541, 43304.210675114780315 ], [ 6501.303522843335486, 43419.281875396110991 ], [ 6558.839122985421454, 43534.353075683102361 ], [ 6558.839122985989889, 43649.424275970093731 ], [ 6616.374723127617472, 43764.495476251424407 ], [ 6731.4459234117694, 43879.566676534166618 ], [ 6731.445923411736658, 43994.637876812666946 ], [ 6731.445923411899457, 44109.709077105319011 ], [ 6788.981523553514307, 44224.780277386649686 ], [ 6846.517123695516602, 44397.387077812891221 ], [ 6904.052723837640769, 44512.458278097052244 ], [ 6904.052723837655321, 44685.065078523293778 ], [ 6961.58832398011964, 44857.671878950946848 ], [ 6961.588323979351117, 44972.743079233696335 ], [ 6961.588323979766756, 45087.814279519268894 ], [ 6961.588323980035057, 45202.885479802011105 ], [ 6961.588323979814049, 45375.492280228252639 ], [ 6961.588323979388406, 45490.563480513832474 ], [ 6961.588323980085079, 45605.634680795163149 ], [ 6961.588323980584391, 45720.705881082154519 ], [ 6961.588323980069617, 45835.777081364896731 ], [ 6961.588323979784036, 45950.848281649057753 ], [ 6961.588323979948655, 46065.919481936049124 ], [ 6961.588323979737652, 46180.990682217379799 ], [ 6961.588323979891356, 46296.06188250012201 ], [ 6961.588323980112364, 46411.133082784283033 ], [ 6961.588323980097812, 46526.204283069862868 ], [ 6961.588323979721281, 46698.81108349468559 ], [ 6961.588323980060522, 46813.882283778846613 ], [ 6961.588323979894085, 46928.953484064419172 ], [ 6961.588323979944107, 47044.024684347168659 ], [ 6904.0527238378736, 47216.631484771991381 ], [ 6904.052723837623489, 47331.70268505756394 ], [ 6904.052723837732628, 47446.773885341724963 ], [ 6846.517123695801274, 47619.380685767966497 ], [ 6846.517123695793089, 47734.451886053546332 ], [ 6846.51712369656525, 47907.058686481199402 ], [ 6731.445923411654803, 48079.6654869060294 ], [ 6731.445923411463809, 48194.736687188771612 ], [ 6731.445923411862168, 48309.807887472932634 ], [ 6616.374723127702055, 48424.879087755674846 ], [ 6558.839122985748872, 48597.485888183335192 ], [ 6501.303522843628343, 48712.557088466077403 ], [ 6501.30352284336459, 48827.628288747408078 ], [ 6501.303522843320025, 48942.699489035810984 ], [ 6501.303522843682913, 49057.770689318560471 ], [ 6386.232322559227214, 49115.306289460640983 ], [ 6328.696722417291312, 49230.377489744802006 ], [ 6271.161122275279922, 49345.448690031793376 ], [ 6271.161122275336311, 49460.519890315954399 ], [ 6213.625522133261256, 49575.591090594447451 ], [ 6156.089921991134361, 49690.662290881438821 ], [ 6098.554321849259395, 49805.733491165599844 ], [ 5983.483121565134752, 49863.269091310510703 ], [ 5868.411921280904608, 49978.340291594671726 ], [ 5753.3407209970228, 50035.87589173392189 ], [ 5695.805120854973211, 50150.947092018082913 ], [ 5580.73392057066485, 50208.482692160163424 ], [ 5580.733920570693044, 50323.553892444324447 ], [ 5465.662720286471085, 50381.089492587816494 ], [ 5350.591520002768448, 50553.696293009808869 ], [ 5350.591520003313235, 50668.767493296807515 ], [ 5293.055919860347785, 50783.838693580968538 ], [ 5235.520319718702012, 50898.909893867959909 ], [ 5120.449119434372733, 50898.909893865122285 ], [ 5120.449119434167187, 51013.981094149283308 ], [ 5005.37791915021171, 51129.052294434863143 ], [ 4890.306718866119809, 51129.052294433444331 ], [ 4890.306718866396295, 51244.123494717605354 ], [ 4775.235518582290752, 51359.194695000354841 ], [ 4660.164318297981481, 51474.265895284508588 ], [ 4602.62871815581002, 51589.337095570088422 ], [ 4487.557517871703567, 51589.337095568669611 ], [ 4430.021917729591223, 51704.408295852830634 ], [ 4372.486317587656231, 51819.479496135580121 ], [ 4257.415117303692568, 51819.479496136991656 ], [ 4199.87951716137286, 51934.550696422571491 ], [ 4084.808316877275502, 52049.621896705313702 ], [ 3969.7371165932841, 52049.621896702483355 ], [ 3969.73711659347282, 52164.693096990893537 ], [ 3854.665916309528711, 52279.764297272216936 ], [ 3739.594716025015714, 52394.835497557796771 ], [ 3739.594716025079833, 52509.906697840538982 ], [ 3624.523515740961557, 52567.442297984038305 ], [ 3624.523515741377196, 52682.513498272448487 ], [ 3509.452315456954693, 52740.049098413110187 ], [ 3451.916715315168858, 52855.120298694440862 ], [ 3336.845515030899151, 52855.12029869302205 ], [ 3279.309914888725416, 52970.191498978594609 ], [ 3164.238714604513916, 52970.191498978594609 ], [ 3049.167514320660302, 52970.191498980013421 ], [ 2934.096314036635704, 53085.262699262755632 ], [ 2819.025113752363268, 53085.262699261344096 ], [ 2703.953913468383689, 53200.333899546916655 ], [ 2588.882713184988916, 53200.333899545505119 ], [ 2416.275912758258983, 53257.869499688997166 ], [ 2301.204712474236203, 53315.405099829666142 ], [ 2128.597912048348917, 53430.476300115238701 ], [ 2013.526711763968478, 53545.547500399399723 ], [ 1898.455511479516872, 53603.083100541480235 ], [ 1783.384311195780811, 53718.154300821392098 ], [ 1668.313110911479271, 53775.689900964891422 ], [ 1553.241910627552215, 53890.761101253301604 ], [ 1438.170710343494648, 53890.76110125046398 ], [ 1323.099510059365002, 54005.832301534625003 ], [ 1208.028309775030721, 54005.832301534625003 ], [ 1092.957109490922676, 54005.832301536043815 ], [ 977.88590920693207, 54005.832301533213467 ], [ 805.279108780901538, 54005.832301534625003 ], [ 690.207908496544178, 54005.832301534625003 ], [ 575.136708212700569, 54005.832301533213467 ], [ 402.529907786538672, 54005.832301533213467 ], [ 287.458707502545622, 54005.832301534625003 ], [ 172.387507218299106, 53948.296701392544492 ], [ 57.316306934201364, 53890.76110125046398 ], [ -57.754893349898886, 53833.22550111405144 ], [ -172.826093634042962, 53833.225501112632628 ], [ -287.897293918053492, 53775.689900962053798 ], [ -345.432894060247691, 53660.618700684979558 ], [ -460.504094344093971, 53660.618700686391094 ], [ -575.575294628542338, 53660.618700683560746 ], [ -690.646494912458024, 53603.083100541480235 ], [ -805.717695196667478, 53545.547500399399723 ], [ -863.253295338603039, 53430.476300115238701 ], [ -978.324495622488485, 53430.476300115238701 ], [ -1093.395695906638366, 53372.940699974577001 ], [ -1150.931296049013781, 53257.869499686166819 ], [ -1266.00249633306953, 53257.869499688997166 ], [ -1381.073696617108681, 53200.333899546916655 ], [ -1496.144896901329048, 53142.798299404836143 ], [ -1611.216097185318631, 53142.798299406254955 ], [ -1726.287297469257283, 53142.798299407673767 ], [ -1898.894097895201185, 53085.262699267004791 ], [ -2013.965298179690308, 53027.727099119263585 ], [ -2129.036498463584849, 52970.191498978594609 ], [ -2244.107698747646737, 52912.655898836521374 ], [ -2359.178899031619949, 52855.120298694440862 ], [ -2474.25009931627983, 52797.584698552360351 ], [ -2589.321299599835584, 52740.049098410279839 ], [ -2704.392499884617337, 52682.513498268199328 ], [ -2761.928100026377706, 52567.442297984038305 ], [ -2876.999300310403214, 52509.906697841957794 ], [ -2934.534900452116744, 52394.835497557796771 ], [ -2992.070500594329587, 52279.76429727505456 ], [ -3049.606100736349163, 52164.693096989474725 ], [ -3164.67730102026826, 52107.157496848813025 ], [ -3164.677301020346476, 51992.086296563233191 ], [ -3164.677301020520645, 51877.015096281902515 ], [ -3222.212901162517937, 51761.943895994911145 ], [ -3222.212901162351955, 51646.872695709338586 ], [ -3222.212901162402432, 51474.265895284508588 ], [ -3222.212901162488834, 51359.194695000354841 ], [ -3222.212901161780792, 51244.123494716193818 ], [ -3222.212901162752587, 51129.052294433444331 ], [ -3222.212901162380604, 50956.445494007202797 ], [ -3222.212901162482012, 50841.374293723041774 ], [ -3222.212901162372873, 50726.303093440299563 ], [ -3222.212901162462913, 50611.231893151889381 ], [ -3222.21290116265709, 50496.160692870565981 ], [ -3222.212901162340586, 50381.089492586404958 ], [ -3164.677301020408777, 50266.018292303662747 ], [ -3107.141700878521988, 50150.94709202091326 ], [ -3107.141700878383745, 50035.87589173392189 ], [ -2992.070500594227724, 49920.804691449760867 ], [ -2934.534900452276815, 49805.733491165599844 ], [ -2876.999300310455965, 49633.12669073510915 ], [ -2819.463700167679235, 49518.055490455197287 ], [ -2761.928100026179891, 49402.984290172455076 ], [ -2704.392499884155313, 49287.913089884044894 ], [ -2646.856899742383575, 49172.841889602721494 ], [ -2646.856899742074347, 49057.770689319972007 ], [ -2589.321299599679151, 48942.699489034399448 ], [ -2474.250099316107935, 48827.628288750238426 ], [ -2474.250099316078831, 48712.557088467496214 ], [ -2474.250099316010619, 48597.485888183335192 ], [ -2416.714499173628155, 48482.414687899174169 ], [ -2359.178899031768651, 48367.343487612175522 ], [ -2301.643298889708603, 48252.272287330852123 ], [ -2244.107698747237464, 48137.2010870466911 ], [ -2244.107698747862287, 48022.129886762530077 ], [ -2186.572098605821338, 47907.058686479787866 ], [ -2129.036498463729458, 47791.987486197038379 ], [ -2129.03649846384269, 47676.916285907216661 ], [ -2071.500898321333352, 47561.845085625885986 ], [ -2071.500898321793102, 47446.773885341724963 ], [ -2013.965298179266711, 47274.167084915483429 ], [ -1956.429698037554544, 47159.09588462991087 ], [ -1956.429698037251455, 47044.0246843429195 ], [ -1956.429698037509752, 46928.953484063007636 ], [ -1956.429698037237813, 46813.882283777427801 ], [ -1956.429698037404933, 46698.811083493266779 ], [ -1898.894097895771665, 46583.739883209105756 ], [ -1898.894097896058383, 46411.133082784283033 ], [ -1898.894097895667755, 46296.061882504371169 ], [ -1898.894097895358527, 46180.990682218791335 ], [ -1898.894097895586128, 46065.919481934637588 ], [ -1898.894097895456753, 45893.31268150555843 ], [ -1898.894097895486539, 45778.241481222816219 ], [ -1898.894097895555888, 45605.634680796574685 ], [ -1898.894097895532241, 45490.563480512413662 ], [ -1898.894097895181631, 45375.492280231090263 ], [ -1898.894097895320101, 45202.885479802011105 ], [ -1898.894097895429468, 45087.814279517857358 ], [ -1898.894097895517916, 44972.743079233696335 ], [ -1898.894097895525874, 44857.6718789481165 ], [ -1898.89409789519641, 44685.065078521874966 ], [ -1898.894097895513823, 44512.458278099882591 ], [ -1898.89409789564138, 44397.387077812891221 ], [ -1898.894097895396499, 44282.315877528730198 ], [ -1898.894097895234381, 44167.244677248818334 ], [ -2013.96529817961482, 44109.709077102488664 ], [ -2013.96529817975761, 43994.637876818327641 ], [ -2071.500898321298337, 43879.566676534166618 ], [ -2129.036498463480257, 43764.495476251424407 ], [ -2244.107698747915947, 43764.495476252843218 ], [ -2244.107698747767245, 43649.424275967263384 ], [ -2359.178899031562196, 43534.353075678853202 ], [ -2474.250099315696389, 43419.281875398941338 ], [ -2531.78569945790332, 43304.210675117617939 ], [ -2646.856899742097539, 43189.139474827788945 ], [ -2704.392499883924756, 43074.068274546458269 ], [ -2704.392499884145764, 42958.997074262304523 ], [ -2819.463700167655588, 42901.461474120224011 ], [ -2876.999300310118997, 42786.390273836062988 ], [ -2934.534900452037164, 42671.319073553313501 ], [ -2992.070500593606994, 42498.71227312990959 ], [ -3049.606100736406461, 42383.641072840080597 ], [ -3107.141700878425581, 42268.569872560168733 ], [ -3107.14170087846378, 42153.498672273177363 ], [ -3164.677301020672985, 42038.427471987597528 ], [ -3164.677301020605228, 41923.356271704855317 ], [ -3164.677301020461528, 41750.749471278613782 ], [ -3164.677301020366485, 41635.678270997290383 ], [ -3164.67730102029418, 41520.60707071312936 ], [ -3164.677301020656159, 41405.535870424719178 ], [ -3164.677301020335562, 41290.464670143388503 ], [ -3164.677301020080904, 41117.857869715735433 ], [ -3164.677301020436516, 41002.786669432985946 ], [ -3164.677301020274172, 40887.715469148832199 ], [ -3164.677301020522918, 40772.644268864671176 ], [ -3107.141700878201846, 40542.50186829634913 ], [ -2992.070500594122677, 40542.501868297760666 ], [ -2992.070500593960787, 40427.43066800935776 ], [ -2992.070500594353234, 40312.359467728027084 ], [ -2934.534900452092643, 40197.288267441035714 ], [ -2876.999300310296348, 40082.217067158286227 ], [ -2761.928100025626463, 39967.145866875544016 ], [ -2761.928100026074389, 39852.074666592801805 ], [ -2704.392499883936125, 39737.00346630722197 ], [ -2646.856899741810139, 39621.9322660202306 ], [ -2531.785699458142972, 39449.325465599657036 ], [ -2416.714499173910099, 39334.254265312665666 ], [ -2359.178899031702258, 39219.183065028504643 ], [ -2244.107698747803624, 39161.647464886424132 ], [ -2244.107698747528957, 39046.576264603674645 ], [ -2186.572098605790416, 38931.505064318102086 ], [ -2071.500898321630302, 38873.969464173191227 ], [ -2013.965298178892454, 38758.898263891860552 ], [ -1898.894097895437653, 38701.362663751198852 ], [ -1783.822897611303461, 38701.362663751198852 ], [ -1668.751697327410284, 38586.291463467037829 ], [ -1553.680497042641036, 38586.291463467037829 ], [ -1438.609296758960681, 38471.220263180039183 ], [ -1323.53809647457183, 38471.220263180039183 ], [ -1208.466896190616126, 38413.684663042207831 ], [ -1093.395695906941683, 38413.684663040796295 ], [ -1035.860095764699281, 38298.613462753804924 ], [ -920.788895480764836, 38241.077862617385108 ], [ -748.1820950547027, 38183.542262473893061 ], [ -633.110894770617051, 38068.471062188313226 ], [ -518.039694486363487, 38010.935462046232715 ], [ -402.968494202017723, 37953.399861902733392 ], [ -402.968494202185298, 37838.32866161999118 ], [ -287.897293917750005, 37723.257461334418622 ], [ -172.826093634135617, 37608.186261053087946 ], [ -115.290493492623654, 37493.115060767508112 ], [ -0.219293207836199, 37493.115060768926924 ], [ 805.279108781058312, 37435.579460622597253 ] ] ] } },
{ "type": "Feature", "properties": { "fid": 2, "name": "Underground Lake", "feature_type": "plateau", "target_elevation_m": -75, "amplitude_scale": 1.2, "edge_transition_km": 1 }, "geometry": { "type": "Polygon", "coordinates": [ [ [ 1265.563909917152159, 41578.142670850960712 ], [ 1380.635110201387079, 41635.67827099445276 ], [ 1610.777510769720038, 41808.285071420694294 ], [ 1725.848711053682564, 41808.285071420694294 ], [ 1840.919911337721032, 41923.356271704855317 ], [ 1955.991111621408436, 42038.42747198901634 ], [ 2071.062311905557635, 42095.963072132515663 ], [ 2186.133512190131114, 42211.034272418088221 ], [ 2358.740312616272149, 42268.569872560168733 ], [ 2588.882713184090335, 42441.176672987829079 ], [ 2703.953913468323663, 42441.17667298357992 ], [ 2991.631914178376064, 42613.783473409821454 ], [ 3049.167514320605278, 42728.854673693982477 ], [ 3164.238714604668985, 42958.99707426513487 ], [ 3221.774314747020071, 43131.603874691376404 ], [ 3221.774314746643995, 43246.675074972699804 ], [ 3279.309914888936419, 43361.746275261109986 ], [ 3336.845515031100604, 43476.817475541021849 ], [ 3394.381115173148373, 43591.888675825182872 ], [ 3509.452315457090208, 43706.959876109343895 ], [ 3509.452315456941506, 43822.031076392086106 ], [ 3566.987915599589996, 43994.637876818327641 ], [ 3739.594716025422258, 44109.709077099658316 ], [ 3797.130316167128058, 44282.31587752589985 ], [ 3969.737116593677456, 44339.851477672229521 ], [ 4199.879517161647527, 44397.387077811472409 ], [ 4257.415117303828083, 44512.458278097052244 ], [ 4430.021917729577581, 44569.993878237713943 ], [ 4487.557517872514836, 44685.065078521874966 ], [ 4602.628718155833667, 44800.136278806035989 ], [ 4717.699918440276633, 44857.671878949535312 ], [ 4832.771118724205735, 44915.207479090197012 ], [ 5005.377919150099842, 45030.278679381437541 ], [ 5120.449119434508248, 45087.814279517857358 ], [ 5120.449119434170825, 45202.885479802011105 ], [ 5177.984719576393218, 45317.956680086172128 ], [ 5235.520319717970779, 45433.027880371751962 ], [ 5293.055919860030372, 45548.099080654494173 ], [ 5350.591520002411016, 45720.705881082154519 ], [ 5465.662720286718468, 45835.777081366315542 ], [ 5580.733920570958617, 45950.848281649057753 ], [ 5580.733920570822193, 46065.919481931799965 ], [ 5638.269520712628946, 46180.990682217379799 ], [ 5695.805120854625784, 46296.061882497291663 ], [ 5695.805120854946836, 46411.133082784283033 ], [ 5753.34072099705827, 46526.204283065613708 ], [ 5810.876321138426647, 46641.275483352605079 ], [ 5810.876321139066931, 46756.346683638177637 ], [ 5810.876321139310676, 46871.417883920927125 ], [ 5810.876321138831372, 46986.489084205088147 ], [ 5810.876321138830463, 47101.560284490660706 ], [ 5810.876321138975072, 47216.631484776240541 ], [ 5810.876321138928688, 47331.70268505756394 ], [ 5753.34072099691366, 47446.773885344562586 ], [ 5638.269520712607118, 47561.845085625885986 ], [ 5523.19832042881626, 47561.845085625885986 ], [ 5408.127120144683431, 47561.845085628723609 ], [ 5293.055919860306858, 47619.380685767966497 ], [ 5177.984719576625139, 47619.380685767966497 ], [ 4947.84231900802115, 47619.380685769385309 ], [ 4832.771118724027474, 47619.380685767966497 ], [ 4717.699918439836438, 47619.380685767966497 ], [ 4545.093118014149695, 47619.380685767966497 ], [ 4430.021917729994129, 47619.380685767966497 ], [ 4257.415117303799889, 47504.309485486643098 ], [ 4142.343917019178662, 47446.773885341724963 ], [ 4027.27271673530413, 47446.773885341724963 ], [ 3912.201516451542375, 47331.70268505756394 ], [ 3797.130316167427736, 47274.167084915483429 ], [ 3682.059115883293998, 47159.095884634160029 ], [ 3566.987915599228472, 47101.56028448924917 ], [ 3451.91671531491329, 47101.56028448924917 ], [ 3279.309914889495758, 46986.489084205088147 ], [ 3279.309914888609455, 46871.41788392233866 ], [ 3164.238714604986853, 46871.417883918089501 ], [ 3106.703114462583471, 46756.346683638177637 ], [ 2991.631914178575698, 46641.275483352605079 ], [ 2934.096314036131389, 46526.204283071274403 ], [ 2876.560713894666151, 46411.133082784283033 ], [ 2819.025113752511061, 46296.06188250012201 ], [ 2703.953913468350493, 46180.990682217379799 ], [ 2588.882713184219028, 46123.455082075299288 ], [ 2473.811512900072557, 46065.919481936049124 ], [ 2358.740312616312167, 46008.383881791138265 ], [ 2186.133512189957855, 45950.848281646227406 ], [ 2071.062311905703154, 45893.312681504146894 ], [ 1898.455511479334746, 45835.777081364896731 ], [ 1783.384311195441796, 45835.777081366315542 ], [ 1668.313110911387639, 45778.241481224235031 ], [ 1495.706310485287077, 45720.705881080735708 ], [ 1380.635110201361158, 45720.705881080735708 ], [ 1265.563909917059846, 45663.170280940074008 ], [ 1092.957109491349001, 45605.634680796574685 ], [ 977.88590920708657, 45605.634680796574685 ], [ 862.814708923057651, 45490.563480512413662 ], [ 747.743508638928802, 45490.563480513832474 ], [ 575.136708212453527, 45490.563480513832474 ], [ 517.601108070624377, 45375.492280225422292 ], [ 344.994307644281491, 45260.42107994692924 ], [ 172.387507218246469, 45145.349879659930593 ], [ 57.316306934343451, 45087.814279516438546 ], [ -57.754893349863558, 45030.278679378607194 ], [ -172.826093634085083, 44972.743079233696335 ], [ -345.432894060192552, 44915.207479090197012 ], [ -460.504094344254383, 44800.136278807454801 ], [ -633.110894770609889, 44627.529478381213266 ], [ -748.182095054479191, 44512.458278102712939 ], [ -805.71769519626946, 44397.387077815721568 ], [ -863.253295338347471, 44282.315877528730198 ], [ -920.788895480727888, 44167.244677244569175 ], [ -920.788895480542919, 43994.637876818327641 ], [ -978.324495622718928, 43879.566676534166618 ], [ -978.324495622877407, 43764.495476248594059 ], [ -978.32449562264469, 43649.424275965844572 ], [ -978.324495622843642, 43476.817475541021849 ], [ -978.324495622783729, 43361.746275256860827 ], [ -978.324495622739846, 43246.675074974118616 ], [ -978.324495622681184, 43131.603874685708433 ], [ -978.324495622065001, 43016.532674404385034 ], [ -978.324495622401173, 42901.461474120224011 ], [ -978.324495622118093, 42786.390273833225365 ], [ -978.324495622727227, 42671.319073550483154 ], [ -978.32449562214299, 42556.247873264910595 ], [ -978.324495622903669, 42441.176672982161108 ], [ -978.32449562241095, 42326.105472698000085 ], [ -1035.860095764852304, 42211.034272415257874 ], [ -1035.860095764605376, 42095.963072131096851 ], [ -1093.39569590649262, 41980.891871845524292 ], [ -1093.395695906965329, 41865.820671559944458 ], [ -1093.395695906578339, 41750.749471278613782 ], [ -1093.395695906837773, 41635.67827099445276 ], [ -1093.395695907196114, 41520.60707071312936 ], [ -1093.395695906592664, 41405.535870428968337 ], [ -1035.860095764544212, 41290.464670146226126 ], [ -978.324495622515883, 41117.85786971856578 ], [ -863.253295338316548, 40945.251069293743058 ], [ -805.717695196408158, 40830.179869009582035 ], [ -748.182095054437127, 40715.108668722590664 ], [ -633.110894769916513, 40600.037468438429642 ], [ -575.575294628549727, 40484.966268152849807 ], [ -460.504094344025589, 40484.966268152849807 ], [ -345.432894060705166, 40484.966268152849807 ], [ -230.361693776010156, 40484.966268155680154 ], [ -115.29049349198236, 40484.966268154268619 ], [ -0.219293208097168, 40484.966268151430995 ], [ 114.851907076170221, 40484.966268154268619 ], [ 287.45870750215812, 40484.966268154268619 ], [ 517.601108070734881, 40427.430668012188107 ], [ 632.672308354790175, 40312.359467728027084 ], [ 747.743508638767935, 40254.823867585946573 ], [ 862.814708922960676, 40254.823867585946573 ], [ 977.885909207160807, 40254.823867580278602 ], [ 1208.028309775149182, 40254.823867585946573 ], [ 1323.099510059499607, 40369.895067867277248 ], [ 1438.170710343573774, 40427.43066800935776 ], [ 1553.241910627586094, 40542.501868297760666 ], [ 1668.313110911418335, 40600.037468438429642 ], [ 1668.313110911688682, 40715.1086687240022 ], [ 1553.241910627647258, 40830.179869008163223 ], [ 1438.170710342720213, 40887.715469147413387 ], [ 1323.09951005918856, 40887.715469147413387 ], [ 1208.028309775000253, 40887.715469148832199 ], [ 1092.957109491182791, 40887.715469147413387 ], [ 977.885909206198221, 40887.715469147413387 ], [ 920.35030906473844, 41002.786669432985946 ], [ 805.279108780865613, 41117.857869719984592 ], [ 747.743508638519188, 41232.929069999896456 ], [ 747.743508638950516, 41348.000270284057478 ], [ 1265.563909917152159, 41578.142670850960712 ] ] ] } }
]
}
