{
"type": "FeatureCollection",
"name": "roi",
"features": [
{ "type": "Feature", "properties": { "id": 1, "left": -65000.0, "top": 80000.0, "right": 65000.0, "bottom": -80000.0, "row_index": 0, "col_index": 0 }, "geometry": { "type": "Polygon", "coordinates": [ [ [ -65001.636023020044377, 80002.020395684521645 ], [ 65001.636023020044377, 80002.020395684521645 ], [ 65001.649499695493432, -80002.023213567663333 ], [ -65001.649499695493432, -80002.023213567663333 ], [ -65001.636023020044377, 80002.020395684521645 ] ] ] } }
]
}
