{
"type": "FeatureCollection",
"name": "terrain_zones",
"features": [
{ "type": "Feature", "properties": { "fid": 1, "feature_type": "plateau", "target_elevation_m": 1200, "amplitude_scale": 0.2, "edge_transition_km": 5, "name": "NW Plateau" }, "geometry": { "type": "Polygon", "coordinates": [ [ [ -24747.438154421120998, 36962.355791667141602 ], [ -24583.500659986719256, 37240.289811947855924 ], [ -24424.406424531269295, 37521.024287842206832 ], [ -24270.203272376282257, 37804.474829517988837 ], [ -24120.937557565350289, 38090.556230683476315 ], [ -23976.654149929967389, 38379.182494200766087 ], [ -23837.396421601471957, 38670.266857936803717 ], [ -23703.206233973232884, 38963.721820844446484 ], [ -23574.123925116939063, 39259.459169265574019 ], [ -23450.188297656859504, 39557.390003448446805 ], [ -23331.436607105595613, 39857.424764271330787 ], [ -23217.904550664952694, 40159.473260164275416 ], [ -23109.626256495215785, 40463.444694221034297 ], [ -23006.634273456122173, 40769.247691492972081 ], [ -22908.959561322510126, 41076.790326456721232 ], [ -22816.631481477747002, 41385.980150647308619 ], [ -22729.677788087534282, 41696.72422044853738 ], [ -22648.124619756952598, 42008.929125032162119 ], [ -22571.996491673053242, 42322.501014437562844 ], [ -22501.316288235539105, 42637.345627783353848 ], [ -22436.105256177601404, 42953.368321602589276 ], [ -22376.382998179087735, 43270.474098292936105 ], [ -22322.167466973864066, 43588.567634673294378 ], [ -22273.474959953135112, 43907.553310638322728 ], [ -22230.320114266425662, 44227.335237902174413 ], [ -22192.715902421554347, 44547.817288822901901 ], [ -22160.673628385087795, 44868.903125298755185 ], [ -22134.202924184297444, 45190.496227727810037 ], [ -22113.311747011757689, 45512.499924022078631 ], [ -22098.006376833363902, 45834.817418667546008 ], [ -22088.291414500577957, 46157.351821821226622 ], [ -22084.169780367359635, 46480.00617843663349 ], [ -22085.642713412336889, 46802.6834974088124 ], [ -22092.709770866324106, 47125.286780730246392 ], [ -22105.368828345453949, 47447.719052648812067 ], [ -22123.616080489759042, 47769.883388819056563 ], [ -22147.446042107079847, 48091.682945437991293 ], [ -22176.851549821923982, 48413.020988356751332 ], [ -22211.823764228829532, 48733.800922159207403 ], [ -22252.352172549493844, 49053.926319198893907 ], [ -22226.237273145528889, 49427.628459994943114 ], [ -22206.603238922107266, 49801.727086972561665 ], [ -22193.455968236532499, 50176.109815313429863 ], [ -22186.799410725408961, 50550.66417485090642 ], [ -22186.635566118078714, 50925.277643857785733 ], [ -22192.964483635922079, 51299.837682849509292 ], [ -22205.784261977525603, 51674.231768392673985 ], [ -22225.091049889895658, 52048.347426908774651 ], [ -22250.879047325401189, 52422.072268462950888 ], [ -22283.140507184223679, 52795.294020527595421 ], [ -22321.865737641684973, 53167.900561710717739 ], [ -22367.04310505981266, 53539.779955438832985 ], [ -22418.659037482280837, 53910.820483584466274 ], [ -22476.698028711602092, 54280.910680027860508 ], [ -22541.142642967432039, 54649.939364143130661 ], [ -22611.973520124549395, 55017.795674198539928 ], [ -22689.169381528907252, 55384.36910066105338 ], [ -22772.707036390074791, 55749.549519395033712 ], [ -22862.561388748083118, 56113.227224745183776 ], [ -22958.705445012641576, 56475.292962493767845 ], [ -23061.110322072399867, 56835.63796268220176 ], [ -23169.745255971887673, 57194.15397228718939 ], [ -23284.577611153443286, 57550.733287741531967 ], [ -23405.572890261428256, 57905.268787289896864 ], [ -23532.694744505773997, 58257.653963169796043 ], [ -23665.904984581662575, 58607.782953608111711 ], [ -23805.163592142183916, 58955.550574623543071 ], [ -23950.428731820458779, 59300.852351625449955 ], [ -24101.656763797585882, 59643.584550799612771 ], [ -24258.802256912691519, 59983.644210271355405 ], [ -24421.818002311163582, 60320.929171036892512 ], [ -24590.655027626860829, 60655.338107653384213 ], [ -24765.262611694164661, 60986.770558678646921 ], [ -24945.588299785355048, 61315.126956851221621 ], [ -25131.577919368832227, 61640.308659001915657 ], [ -25323.175596383302036, 61962.217975687664875 ], [ -25520.32377202322823, 62280.758200538897654 ], [ -25722.963220030327648, 62595.833639311596926 ], [ -25931.033064486036892, 62907.349638635234442 ], [ -26144.470798099540843, 63215.212614448115346 ], [ -26363.212300985902402, 63519.330080111372808 ], [ -26587.191859928621852, 63819.610674193398154 ], [ -26816.342188120903302, 64115.964187916113588 ], [ -27050.594445379552781, 64408.30159225508396 ], [ -27073.12819519327968, 64463.876826311825425 ], [ -27096.621913779134047, 64519.053104803009774 ], [ -27121.068541310993169, 64573.813847342236841 ], [ -27146.460731615061377, 64628.142598410995561 ], [ -27172.790854377391952, 64682.023032303550281 ], [ -27200.05099743678511, 64735.438958032769733 ], [ -27228.232969162381778, 64788.374324195545341 ], [ -27257.328300915229192, 64840.813223796132661 ], [ -27287.328249593101646, 64892.73989902624453 ], [ -27318.223800257783296, 64944.13874600022973 ], [ -27350.005668844041793, 64994.994319443998393 ], [ -27382.664304949488724, 65045.291337336326251 ], [ -27416.189894704439212, 65095.01468550106074 ], [ -27450.572363720984868, 65144.149422148926533 ], [ -27485.801380120323302, 65192.680782367489883 ], [ -27521.866357637467445, 65240.59418255800847 ], [ -27558.756458802406996, 65287.875224817777053 ], [ -27596.46059819675429, 65334.509701266644697 ], [ -27634.967445784888696, 65380.483598316524876 ], [ -27674.265430318617291, 65425.783100882399594 ], [ -27714.342742814322264, 65470.394596533755248 ], [ -27755.187340101529117, 65514.30467958508234 ], [ -27796.786948441880668, 65557.500155124289449 ], [ -27839.129067217356351, 65599.968042977736332 ], [ -27882.200972686696332, 65641.695581610736554 ], [ -27925.989721808873583, 65682.670231962430989 ], [ -27970.482156132449745, 65722.87968121371523 ], [ -28015.664905749665195, 65762.311846487224102 ], [ -28061.524393314088229, 65800.954878478209139 ], [ -28108.046838120579196, 65838.797165015319479 ], [ -28155.218260246365389, 65875.827334549889201 ], [ -28203.024484752000717, 65912.034259573236341 ], [ -28251.45114594090046, 65947.407059960314655 ], [ -28300.483691676210583, 65981.935106239296147 ], [ -28350.107387753720104, 66015.608022785629146 ], [ -28400.307322329441376, 66048.415690939917113 ], [ -28451.068410400617722, 66080.348252048584982 ], [ -28502.375398338728701, 66111.396110426387168 ], [ -28554.212868473186973, 66141.549936239840463 ], [ -28606.565243724326137, 66170.80066831089789 ], [ -28659.416792284293479, 66199.139516839772114 ], [ -28712.751632344417885, 66226.55796604626812 ], [ -28766.553736867692351, 66253.047776728795725 ], [ -28820.806938404846733, 66278.600988740159664 ], [ -28875.494933952664724, 66303.20992337964708 ], [ -28930.601289853002527, 66326.867185700422851 ], [ -28986.109446731068601, 66349.56566673173802 ], [ -29042.002724471505644, 66371.298545615107287 ], [ -29098.264327230728668, 66392.059291654019034 ], [ -29154.877348484060349, 66411.841666276362957 ], [ -29211.824776106099307, 66430.639724909138749 ], [ -29269.089497482855222, 66448.447818764791009 ], [ -29326.654304654046427, 66465.260596538617392 ], [ -29384.501899484082969, 66481.073006016900763 ], [ -29442.614898860116227, 66495.880295595008647 ], [ -29500.9758399156417, 66509.678015705314465 ], [ -29559.567185278061515, 66522.462020154256606 ], [ -29618.371328338642343, 66534.22846736824431 ], [ -29677.370598543271626, 66544.973821548075648 ], [ -29736.547266702433262, 66554.694853731431067 ], [ -29795.883550318787456, 66563.388642763151438 ], [ -29855.361618930815894, 66571.052576173067791 ], [ -29914.963599470815097, 66577.68435096104804 ], [ -29974.671581635742768, 66583.281974289013306 ], [ -30034.46762326922908, 66587.843764079792891 ], [ -30094.333755753170408, 66591.368349522614153 ], [ -30154.251989407279325, 66593.854671485009021 ], [ -30214.204318894935568, 66595.301982831049827 ], [ -30274.172728633780935, 66595.709848645914462 ], [ -30334.139198209362803, 66595.078146366562578 ], [ -30394.08570779024376, 66593.40706581856648 ], [ -30453.994243542943877, 66590.697109159023967 ], [ -30513.846803045045817, 66586.94909072574228 ], [ -30573.625400694916607, 66582.164136792445788 ], [ -30633.312073116343527, 66576.343685230429401 ], [ -30692.888884556508856, 66569.489485076366691 ], [ -30752.337932275640924, 66561.603596006811131 ], [ -30811.641351926777133, 66552.688387719259481 ], [ -30870.781322923950938, 66542.746539220024715 ], [ -30929.740073797282093, 66531.781038019194966 ], [ -30988.499887533245783, 66519.795179232940427 ], [ -31047.043106898618134, 66506.792564593313728 ], [ -31105.352139746457397, 66492.777101365922135 ], [ -31163.409464302505512, 66477.753001175806276 ], [ -31221.19763443044576, 66461.72477874183096 ], [ -31278.699284874470322, 66444.697250520097441 ], [ -31335.897136477480672, 66426.675533256493509 ], [ -31392.77400137346558, 66407.665042449239991 ], [ -31449.312788152416033, 66387.671490721419104 ], [ -31505.496506996285461, 66366.700886104430538 ], [ -31561.308274784387322, 66344.75953023256443 ], [ -31616.731320166752994, 66321.854016449346091 ], [ -31671.74898860389294, 66297.991227826263639 ], [ -31726.344747371465928, 66273.178335094431532 ], [ -31780.502190528342908, 66247.422794489757507 ], [ -31834.20504384654123, 66220.732345512413303 ], [ -31887.437169701635867, 66193.11500860103115 ], [ -31940.182571922068746, 66164.579082722702879 ], [ -31992.42540059599196, 66135.133142879058141 ], [ -32044.14995683412053, 66104.786037529498572 ], [ -32095.340697487241414, 66073.546885932286386 ], [ -32145.982239816898073, 66041.42507540420047 ], [ -32196.059366117882746, 66008.430258499662159 ], [ -32245.557028291132156, 65974.572350110160187 ], [ -32294.460352365655126, 65939.861524484847905 ], [ -32342.754642968146072, 65904.308212173171341 ], [ -32390.425387738909194, 65867.923096890561283 ], [ -32437.458261692812812, 65830.717112307902426 ], [ -32483.839131523920514, 65792.701438766074716 ], [ -32529.554059852518549, 65753.887499916221714 ], [ -32574.589309413302544, 65714.286959286997444 ], [ -32618.931347183370235, 65673.911716779650305 ], [ -32662.566848448899691, 65632.773905092180939 ], [ -32705.482700809192465, 65590.885886073388974 ], [ -32747.666008116942976, 65548.260247008278384 ], [ -32789.104094353489927, 65504.909796835519955 ], [ -32829.784507437958382, 65460.8475622983824 ], [ -32869.695022969084675, 65416.086784030252602 ], [ -32908.823647898636409, 65370.64091257583641 ], [ -32947.158624135277933, 65324.523604349262314 ], [ -32984.688432077906327, 65277.748717530390422 ], [ -33021.401794077224622, 65230.33030790041812 ], [ -33057.287677824686398, 65182.28262461815757 ], [ -33092.335299667698564, 65133.620105938192864 ], [ -33126.534127850049117, 65084.357374872175569 ], [ -33159.873885676723148, 65034.50923479465564 ], [ -33192.344554602022981, 64984.09066499468463 ], [ -33181.577143067886936, 64882.490800920975744 ], [ -33172.572970761641045, 64780.719516110271798 ], [ -33165.334744849591516, 64678.807408799184486 ], [ -33159.864641554129776, 64576.785119563552144 ], [ -33156.164305499434704, 64474.683322106189735 ], [ -33154.234849216984003, 64372.53271403459803 ], [ -33154.076852811071149, 64270.364007631520508 ], [ -33155.690363784407964, 64168.20792062109831 ], [ -33159.074897023820085, 64066.095166933358996 ], [ -33164.229434946115362, 63964.056447469869454 ], [ -33171.152427804030594, 63862.122440873288724 ], [ -33179.841794152147486, 63760.323794303651084 ], [ -33190.294921472726855, 63658.691114224056946 ], [ -33202.508666961162817, 63557.254957198638294 ], [ -33216.479358470889565, 63456.045820705519873 ], [ -33232.20279561742791, 63355.094133967555535 ], [ -33249.674251041273237, 63254.430248803539143 ], [ -33268.888471829224727, 63154.084430502756732 ], [ -33289.839681093675608, 63054.086848725499294 ], [ -33312.521579709486105, 62954.467568432359258 ], [ -33336.927348207871546, 62855.256540844966366 ], [ -33363.049648826701741, 62756.483594441000605 ], [ -33390.880627716673189, 62658.178425985992362 ], [ -33420.411917302604706, 62560.370591604827496 ], [ -33451.634638799208915, 62463.089497895474778 ], [ -33484.539404880575603, 62366.364393087715143 ], [ -33519.11632250250841, 62270.224358249419311 ], [ -33555.354995876958128, 62174.698298543175042 ], [ -33593.244529597584915, 62079.814934535694192 ], [ -33632.773531915532658, 61985.602793562837178 ], [ -33673.930118164433225, 61892.090201152626832 ], [ -33716.701914333621971, 61799.305272509001952 ], [ -33761.076060788465838, 61707.275904058777087 ], [ -33807.039216136690811, 61616.02976506442792 ], [ -33854.577561239588249, 61525.594289305081475 ], [ -33903.676803366804961, 61435.996666828395973 ], [ -33954.32218049356743, 61347.263835775680491 ], [ -34006.498465738986852, 61259.422474282757321 ], [ -34060.189971944113495, 61172.49899245898996 ], [ -34115.380556388408877, 61086.519524446914147 ], [ -34172.053625643136911, 61001.509920564822096 ], [ -34230.192140560320695, 60917.49573953467916 ], [ -34289.778621395671507, 60834.502240797723061 ], [ -34350.795153063983889, 60752.55437692005944 ], [ -34413.223390525425202, 60671.676786090465612 ], [ -34477.044564301126229, 60591.893784712767228 ], [ -34542.239486116333865, 60513.22936009496334 ], [ -34608.788554669496079, 60435.707163237231725 ], [ -34676.671761525525653, 60359.350501721142791 ], [ -34745.868697131496447, 60284.182332702031999 ], [ -34816.358556952880463, 60210.225256006808195 ], [ -34888.120147728615848, 60137.501507339147793 ], [ -34961.131893842968566, 60066.032951594155747 ], [ -35035.371843812412408, 59995.841076284566952 ], [ -35110.817676885475521, 59926.94698508035799 ], [ -35187.446709753654432, 59859.371391463806503 ], [ -35265.235903371285531, 59793.134612501809897 ], [ -35344.161869882387691, 59728.256562737420609 ], [ -35424.200879652402364, 59664.756748202446033 ], [ -35505.328868402670196, 59602.654260552764754 ], [ -35587.521444445497764, 59541.967771328338131 ], [ -35670.753896017697116, 59482.715526339459757 ], [ -35755.001198710378958, 59424.915340181018109 ], [ -35840.238022992656624, 59368.584590876460425 ], [ -35926.438741827194463, 59313.74021465289843 ], [ -36013.577438375112251, 59260.398700849182205 ], [ -36101.627913788091973, 59208.576086958244559 ], [ -36190.56369508523494, 59158.287953805294819 ], [ -36280.358043112326413, 59109.549420863375417 ], [ -36370.983960581179417, 59062.375141707554576 ], [ -36462.414200186518428, 59016.779299609261216 ], [ -36554.621272798089194, 58972.775603271948057 ], [ -36647.577455725455366, 58930.377282709509018 ], [ -36741.254801053022675, 58889.597085268578667 ], [ -36835.625144042751344, 58850.447271795928827 ], [ -36930.660111602090183, 58812.939612952199241 ], [ -37026.331130814534845, 58777.085385672937264 ], [ -37122.60943753029278, 58742.895369778118038 ], [ -37219.466085014399141, 58710.379844731127378 ], [ -37316.871952649758896, 58679.548586548160529 ], [ -37414.797754692466697, 58650.410864859004505 ], [ -37561.416869085245708, 58652.276432014805323 ], [ -37708.046356485050637, 58651.614260581118288 ], [ -37854.642641484329943, 58648.424547342292499 ], [ -38001.162158542647376, 58642.708240218562423 ], [ -38147.561364933491859, 58634.467037984250055 ], [ -38293.79675368432072, 58623.703389763031737 ], [ -38439.824866505980026, 58610.420494300022256 ], [ -38585.602306707660318, 58594.622299011214636 ], [ -38731.085752093524206, 58576.31349881037022 ], [ -38876.23196783723688, 58555.499534713788307 ], [ -39020.997819330514176, 58532.186592223319167 ], [ -39165.34028500183922, 58506.381599488209758 ], [ -39309.216469101666007, 58478.09222524613142 ], [ -39452.583614450195455, 58447.326876544218976 ], [ -39595.399115143947711, 58414.094696240652411 ], [ -39737.620529217419971, 58378.405560287566914 ], [ -39879.205591256002663, 58340.270074796135304 ], [ -40020.112224956421414, 58299.69957288463047 ], [ -40160.298555631008639, 58256.706111310428241 ], [ -40299.722922652006673, 58211.302466887005721 ], [ -40438.343891832337249, 58163.502132686888217 ], [ -40576.120267738981056, 58113.319314031818067 ], [ -40713.011105935474916, 58060.768924271163996 ], [ -40848.975725149808568, 58005.866580349997093 ], [ -40983.973719364068529, 57948.628598168033932 ], [ -41117.96496982233657, 57889.071987730858382 ], [ -41250.909656953197555, 57827.214448094906402 ], [ -41382.768272203320521, 57763.074362107625348 ], [ -41513.501629778642382, 57696.670790944481269 ], [ -41643.07087828960357, 57628.023468444320315 ], [ -41771.437512297023204, 57557.152795244888694 ], [ -41898.563383755172254, 57484.079832720148261 ], [ -42024.410713348595891, 57408.826296721235849 ], [ -42148.942101719425409, 57331.414551122972625 ], [ -42272.120540581687237, 57251.867601177735196 ], [ -42393.909423719487677, 57170.209086678740277 ], [ -42514.272557865624549, 57086.463274934772926 ], [ -42633.174173457526194, 57000.655053558439249 ], [ -42750.578935267280031, 56912.809923070002696 ], [ -42866.451952902556513, 56822.953989319183165 ], [ -42980.758791175336228, 56731.113955726985296 ], [ -43064.24177763723128, 56557.791390647405933 ], [ -43144.739792027059593, 56383.062485558257322 ], [ -43222.229152975196484, 56206.978643215436023 ], [ -43296.687064215024293, 56029.591664978135668 ], [ -43368.091621289247996, 55850.953735569528362 ], [ -43436.421817993905279, 55671.117407724836085 ], [ -43501.657552558084717, 55490.135586731041258 ], [ -43563.779633557554916, 55308.061514862871263 ], [ -43622.769785560638411, 55124.948755719735345 ], [ -43678.610654504591366, 54940.851178468030412 ], [ -43731.285812800866552, 54755.822941993646964 ], [ -43780.779764167935355, 54569.918478969128046 ], [ -43827.077948190053576, 54383.192479840421584 ], [ -43870.166744600719539, 54195.699876737686282 ], [ -43910.033477289565781, 54007.495827315055067 ], [ -43946.666418031498324, 53818.6356985240418 ], [ -43980.054789936963061, 53629.175050325364282 ], [ -44010.188770622356969, 53439.169619344007515 ], [ -44037.059495099645574, 53248.675302472278418 ], [ -44060.659058384298987, 53057.748140425770544 ], [ -44080.980517820818932, 52866.444301256953622 ], [ -44098.017895125216455, 52674.820063831335574 ], [ -44111.766178143661818, 52482.931801271057338 ], [ -44122.221322327073722, 52290.835964370657166 ], [ -44129.380251920883893, 52098.589064990119368 ], [ -44133.240860869947937, 51906.247659429842315 ], [ -44133.802013438093127, 51713.868331792604295 ], [ -44131.063544542215823, 51521.507677337322093 ], [ -44125.026259800870321, 51329.222285829506291 ], [ -44115.691935297261807, 51137.068724893411854 ], [ -44103.063317056759843, 50945.10352337059885 ], [ -44087.144120239026961, 50753.383154689967341 ], [ -44067.939028045082523, 50561.964020254083152 ], [ -44045.453690339607419, 50370.902432846698503 ], [ -44019.694721988773381, 50180.254600066306011 ], [ -43990.66970091429539, 49990.07660779068101 ], [ -43958.387165864085546, 49800.424403677228838 ], [ -43922.856613900294178, 49611.353780703931989 ], [ -43884.088497605378507, 49422.920360755924776 ], [ -43842.094222007144708, 49235.179578262243012 ], [ -43796.886141223505547, 49048.186663887870964 ], [ -43748.477554828146822, 48861.996628285691258 ], [ -43774.185574234710657, 48746.860048990231007 ], [ -43801.866846876502677, 48632.181884989411628 ], [ -43831.513210240242188, 48517.995951998644159 ], [ -43863.115922356650117, 48404.335920586738212 ], [ -43896.665664378262591, 48291.235306247333938 ], [ -43932.152543327283638, 48178.727459515983355 ], [ -43969.56609501283674, 48066.845556135944207 ], [ -44008.89528711654566, 47955.622587275473052 ], [ -44050.128522445695125, 47845.091349799557065 ], [ -44093.253642352974566, 47735.28443659892946 ], [ -44138.257930321728054, 47626.234226979264349 ], [ -44185.128115715771855, 47517.972877113323193 ], [ -44233.850377692535403, 47410.532310558897734 ], [ -44284.410349278507056, 47303.944208845372486 ], [ -44336.793121605674969, 47198.240002131606161 ], [ -44390.983248307813483, 47093.450859937991481 ], [ -44446.964750075174379, 46989.60768195532728 ], [ -44504.721119366440689, 46886.741088933304127 ], [ -44564.235325276342337, 46784.881413651171897 ], [ -44625.489818557667604, 46684.058691973390523 ], [ -44688.466536796098808, 46584.302653992803243 ], [ -44753.146909736351517, 46485.642715263973514 ], [ -44819.511864758082083, 46388.107968129268556 ], [ -44887.541832499926386, 46291.727173140272498 ], [ -44957.216752630018163, 46196.528750577010214 ], [ -45028.516079761262517, 46102.540772067528451 ], [ -45101.418789509683847, 46009.790952310264402 ], [ -45175.903384693949192, 45918.306640901675564 ], [ -45251.947901674393506, 45828.114814271546493 ], [ -45329.529916829502326, 45739.242067728308029 ], [ -45408.626553168120154, 45651.714607616726425 ], [ -45489.214487075252691, 45565.558243590348866 ], [ -45571.269955189673055, 45480.798381000844529 ], [ -45654.768761411076412, 45397.460013406634971 ], [ -45739.686284034964046, 45315.56771520289476 ], [ -45825.997483012921293, 45235.14563437520701 ], [ -45913.676907336324803, 45156.217485378903802 ], [ -46002.698702541201783, 45078.806542146259744 ], [ -46093.0366183320657, 45002.935631223626842 ], [ -46184.664016322458338, 44928.627125040431565 ], [ -46277.553877889957221, 44855.902935312129557 ], [ -46371.678812143276446, 44784.784506578944274 ], [ -46467.011063999161706, 44715.292809882477741 ], [ -46563.522522366663907, 44647.448336581815965 ], [ -46661.184728436412115, 44581.271092311166285 ], [ -46759.968884072375658, 44516.78059108069283 ], [ -46859.845860303728841, 44453.995849522339995 ], [ -46960.786205914249877, 44392.935381282281014 ], [ -47062.760156126758375, 44333.617191561716027 ], [ -47165.737641379972047, 44276.058771807598532 ], [ -47269.688296195294242, 44220.277094554825453 ], [ -47374.581468130840221, 44166.288608421498793 ], [ -47480.386226820017328, 44114.109233258597669 ], [ -47587.071373092199792, 44063.754355455632322 ], [ -47630.855658481668797, 44022.479269285438932 ], [ -47673.914853410758951, 43980.448303111894347 ], [ -47716.235910470670206, 43937.674192779188161 ], [ -47757.806005916485447, 43894.169899312350026 ], [ -47798.612543552910211, 43849.948604989927844 ], [ -47838.64315855102177, 43805.023709349581623 ], [ -47877.885721195008955, 43759.408825127917225 ], [ -47916.328340557549382, 43713.117774135636864 ], [ -47953.959368102929147, 43666.164583069403307 ], [ -47990.767401216668077, 43618.563479261603788 ], [ -48026.74128666062461, 43570.328886369279644 ], [ -48061.870123952568974, 43521.475420003633189 ], [ -48096.143268669125973, 43472.017883301319671 ], [ -48129.550335671177891, 43421.971262438928534 ], [ -48162.081202250657952, 43371.350722092043725 ], [ -48193.726011197846674, 43320.171600840119936 ], [ -48224.475173788217944, 43268.44940651878278 ], [ -48254.319372687918076, 43216.199811520753428 ], [ -48283.249564777026535, 43163.438648046940216 ], [ -48311.256983889739786, 43110.181903309130576 ], [ -48338.333143470568757, 43056.445714685665735 ], [ -48364.469839145909646, 43002.246364831655228 ], [ -48389.659151210013079, 42947.600276745128212 ], [ -48413.893447024798661, 42892.524008790729567 ], [ -48437.165383332554484, 42837.034249682306836 ], [ -48459.467908481099585, 42781.147813426076027 ], [ -48480.794264560448937, 42724.881634225777816 ], [ -48501.137989450588066, 42668.252761351446679 ], [ -48520.492918779513275, 42611.27835397326271 ], [ -48538.85318779116642, 42553.975675962166861 ], [ -48556.21323312244931, 42496.362090658709349 ], [ -48572.567794489041262, 42438.455055611753778 ], [ -48587.911916279299476, 42380.272117288659501 ], [ -48602.240949055856618, 42321.830905758513836 ], [ -48615.550550964479044, 42263.149129350014846 ], [ -48627.836689049654524, 42204.244569285663601 ], [ -48639.095640476669359, 42145.135074293844809 ], [ -48649.32399365962192, 42085.838555200498377 ], [ -48658.518649295212526, 42026.372979501895315 ], [ -48666.676821301836753, 41966.756365920336975 ], [ -48673.796037663800234, 41907.006778944232792 ], [ -48679.874141180400329, 41847.142323354419204 ], [ -48684.909290119539946, 41787.181138738174923 ], [ -48688.899958775800769, 41727.141393992722442 ], [ -48691.84493793277943, 41667.041281819881988 ], [ -48693.743335229453805, 41606.899013213456783 ], [ -48694.594575430601253, 41546.732811941124965 ], [ -48694.398400601094181, 41486.56090902240976 ], [ -48693.154870184065658, 41426.401537204503256 ], [ -48690.864360982879589, 41366.272925437537197 ], [ -48687.527567046970944, 41306.193293351010652 ], [ -48683.1454994615342, 41246.180845733040769 ], [ -48677.719486041161872, 41186.253767014110053 ], [ -48671.251170927484054, 41126.430215756983671 ], [ -48663.742514090998156, 41066.728319154492056 ], [ -48655.195790737161587, 41007.166167536735884 ], [ -48645.613590616980218, 40947.761808889583335 ], [ -48634.998817242289078, 40888.53324338587845 ], [ -48623.354687005965388, 40829.498417931215954 ], [ -48610.68472820729221, 40770.675220725832332 ], [ -48596.992779982894717, 40712.081475844286615 ], [ -48582.282991143409163, 40653.734937834560697 ], [ -48566.559818916335644, 40595.653286338230828 ], [ -48549.828027595489402, 40537.854120733361924 ], [ -48532.092687097319867, 40480.354954801696294 ], [ -48513.359171424723172, 40423.173211421773885 ], [ -48493.633157038610079, 40366.326217289613851 ], [ -48472.920621137905982, 40309.831197668543609 ], [ -48451.227839848390431, 40253.705271169746993 ], [ -48428.561386320936435, 40197.965444565146754 ], [ -48404.928128739826207, 40142.628607634142099 ], [ -48380.33522824155807, 40087.711528045867453 ], [ -48354.790136745010386, 40033.230846278383979 ], [ -48320.329687285811815, 39984.0686792933775 ], [ -48285.01844859222183, 39935.513991965417517 ], [ -48248.867127103047096, 39887.581506173650268 ], [ -48211.886683971883031, 39840.285755144461291 ], [ -48174.088331743703748, 39793.641079044973594 ], [ -48135.483530955149035, 39747.661620635073632 ], [ -48096.083986659687071, 39702.361320979311131 ], [ -48055.901644878642401, 39657.753915219924238 ], [ -48014.948688979086, 39613.852928412321489 ], [ -47973.237535979882523, 39570.671671424264787 ], [ -47930.780832786746032, 39528.223236899990297 ], [ -47887.59145235773758, 39486.520495290467807 ], [ -47843.682489800135954, 39445.576090951086371 ], [ -47799.067258399962157, 39405.402438307835837 ], [ -47753.759285585379985, 39366.011718093242962 ], [ -47707.772308825136861, 39327.415873653131712 ], [ -47661.120271463369136, 39289.626607325400983 ], [ -47613.817318491914193, 39252.655376891838387 ], [ -47565.877792261526338, 39216.513392104090599 ], [ -47517.316228133277036, 39181.211611284845276 ], [ -47468.147350071376422, 39146.760738005272287 ], [ -47418.386066178827605, 39113.171217839641031 ], [ -47368.047464177303482, 39080.453235198227048 ], [ -47317.146806832468428, 39048.616710239373788 ], [ -47265.699527326323732, 39017.671295861669932 ], [ -47213.721224577784596, 38987.626374777180899 ], [ -47161.227658513111237, 38958.491056666585791 ], [ -47108.234745287423721, 38930.274175417114748 ], [ -47054.758552458923077, 38902.984286444087047 ], [ -47000.815294117142912, 38876.629664096879424 ], [ -46946.421325966832228, 38851.218299150161329 ], [ -46891.593140368873719, 38826.757896381051978 ], [ -46836.347361339736381, 38803.255872232999536 ], [ -46780.700739511070424, 38780.719352567153692 ], [ -46724.670147050870582, 38759.155170501726388 ], [ -46668.272572547801246, 38738.569864340228378 ], [ -46611.525115860225924, 38718.969675589018152 ], [ -46554.444982931483537, 38700.360547064854472 ], [ -46497.049480573026813, 38682.748121093049122 ], [ -46439.356011216957995, 38666.137737796685542 ], [ -46381.382067639562592, 38650.534433477492712 ], [ -46323.145227657500072, 38635.942939088818093 ], [ -46264.66314879811398, 38622.367678801187139 ], [ -46205.953562945709564, 38609.81276866090775 ], [ -46147.034270965137694, 38598.282015342068917 ], [ -46087.923137304591364, 38587.778914992319187 ], [ -46028.638084579040878, 38578.306652172897884 ], [ -45969.197088136061211, 38569.868098892977287 ], [ -45909.618170605695923, 38562.465813738948782 ], [ -45849.919396435921954, 38556.102041098602058 ], [ -45790.118866415497905, 38550.77871048063389 ], [ -45730.234712185767421, 38546.497435929624771 ], [ -45670.285090743083856, 38543.259515536665276 ], [ -45610.288178933617019, 38541.065931045741308 ], [ -45550.262167942055385, 38539.917347556103778 ], [ -45490.225257776022772, 38539.814113320571778 ], [ -45430.195651747795637, 38540.756259639987547 ], [ -45370.191550955009006, 38542.743500853677688 ], [ -45310.231148762082739, 38545.775234426102543 ], [ -45250.332625283910602, 38549.850541129519115 ], [ -45190.514141873652989, 38554.968185322723002 ], [ -45130.79383561614668, 38561.126615325665625 ], [ -45071.189813828721526, 38568.323963889946754 ], [ -45011.720148571017489, 38576.558048764964042 ], [ -44952.402871165519173, 38585.826373359574063 ], [ -44893.255966730393993, 38596.126127499061113 ], [ -44834.297368726380228, 38607.454188277195499 ], [ -44775.544953519332921, 38619.807121003090288 ], [ -44717.016534960064746, 38633.181180242623668 ], [ -44658.729858983148006, 38647.572310954063141 ], [ -44600.702598226322152, 38662.976149717535009 ], [ -44542.952346672107524, 38679.388026058069954 ], [ -44485.49661431327695, 38696.802963861628086 ], [ -44428.352821843785932, 38715.215682883957925 ], [ -44371.538295376783935, 38734.620600351503526 ], [ -44315.070261191307509, 38755.011832654134196 ], [ -44258.965840509241389, 38776.383197129085602 ], [ -44203.242044304111914, 38798.728213935537497 ], [ -44147.915768143335299, 38822.040108019318723 ], [ -44093.003787065455981, 38846.31181116712105 ], [ -44038.522750493917556, 38871.535964149567008 ], [ -43984.489177188901522, 38897.704918952607841 ], [ -43930.919450238849095, 38924.810741096349375 ], [ -43877.829812093026703, 38952.845212040840124 ], [ -43825.236359636815905, 38981.79983167793398 ], [ -43773.155039311110158, 39011.665820908543537 ], [ -43721.601642277288192, 39042.434124304483703 ], [ -43670.591799629328307, 39074.095412854105234 ], [ -43620.140977654431481, 39106.640086790845089 ], [ -43570.264473143586656, 39140.058278503907786 ], [ -43520.977408753577038, 39174.339855530161003 ], [ -43472.294728421751643, 39209.474423626284988 ], [ -43424.23119283500273, 39245.451329920368153 ], [ -43376.801374954273342, 39282.259666141828347 ], [ -43330.019655596021039, 39319.888271928888571 ], [ -43283.900219071940228, 39358.325738212355645 ], [ -43238.457048888209101, 39397.560410674916056 ], [ -43193.703923505701823, 39437.580393284726597 ], [ -43149.654412162322842, 39478.37355190233211 ], [ -43106.321870758765726, 39519.927517959746183 ], [ -43063.719437808998919, 39562.229692210632493 ], [ -43021.860030456635286, 39605.267248550422664 ], [ -42980.756340558429656, 39649.027137905213749 ], [ -42940.420830836075766, 39693.496092188281182 ], [ -42900.865731097488606, 39738.660628322977573 ], [ -42862.103034528707212, 39784.507052330831357 ], [ -42824.144494057516567, 39831.021463483608386 ], [ -42787.001618789981876, 39878.189758517997689 ], [ -42750.685670520790154, 39925.997635911808175 ], [ -42715.207660318730632, 39974.430600220162887 ], [ -42680.578345188056119, 40023.473966470577579 ], [ -42646.808224806984072, 40073.112864615475701 ], [ -42613.907538344130444, 40123.332244040801015 ], [ -42581.886261354004091, 40174.116878129403631 ], [ -42550.754102752383915, 40225.451368877780624 ], [ -42520.520501872560999, 40277.320151564781554 ], [ -42491.194625603311579, 40329.707499470860057 ], [ -42462.785365609481232, 40382.597528646445426 ], [ -42435.301335636009753, 40435.974202728008095 ], [ -42408.750868896226166, 40489.821337800276524 ], [ -42383.142015545206959, 40544.122607303281256 ], [ -42358.482540238954243, 40598.861546982559958 ], [ -42334.779919780114142, 40654.021559881184658 ], [ -42312.041340851035784, 40709.585921371959557 ], [ -42290.273697834723862, 40765.537784228399687 ], [ -42269.483590724441456, 40821.860183732816949 ], [ -42249.677323122610687, 40878.53604282005108 ], [ -42230.860900329520518, 40935.548177255310293 ], [ -42213.040027522525634, 40992.879300844389945 ], [ -42164.216745681136672, 41076.855685055947106 ], [ -42113.9390534718259, 41159.969460214524588 ], [ -42062.222187022125581, 41242.195439561874082 ], [ -42009.081818586273585, 41323.508705376909347 ], [ -41954.534051795853884, 41403.884616526855098 ], [ -41898.595416779753577, 41483.298815934402228 ], [ -41841.282865154928004, 41561.727237958926708 ], [ -41782.613764889320009, 41639.146115689298313 ], [ -41722.605895038752351, 41715.531988146212825 ], [ -41661.277440359117463, 41790.861707391755772 ], [ -41598.646985795690853, 41865.112445544211369 ], [ -41534.733510851176106, 41938.261701695744705 ], [ -41469.556383834147709, 42010.287308731109079 ], [ -41403.135355989703385, 42081.167440045130206 ], [ -41335.490555514028529, 42150.880616157053737 ], [ -41266.642481454793597, 42219.405711219667864 ], [ -41196.611997499108838, 42286.721959421258362 ], [ -41125.420325651000894, 42352.808961278482457 ], [ -41053.089039800317551, 42417.64668981822615 ], [ -40979.640059184996062, 42481.215496646538668 ], [ -40905.095641748637718, 42543.496117902912374 ], [ -40829.478377395498683, 42604.469680097958189 ], [ -40752.811181144847069, 42664.117705832846696 ], [ -40675.11728618680354, 42722.422119398666837 ], [ -40596.420236841760925, 42779.365252254086954 ], [ -40516.743881425551081, 42834.929848379637406 ], [ -40436.112365022432641, 42889.099069506941305 ], [ -40354.550122168184316, 42941.856500221401802 ], [ -40272.081869445493794, 42993.186152936686995 ], [ -40188.732597993825038, 43043.072472739637305 ], [ -40104.527565936150495, 43091.500342103994626 ], [ -40019.492290724701888, 43138.455085471621715 ], [ -39933.652541408213438, 43183.922473699756665 ], [ -39847.034330822847551, 43227.888728373036429 ], [ -39759.663907709320483, 43270.340525978892401 ], [ -39671.567748758432572, 43311.265001945066615 ], [ -39582.772550587651494, 43350.649754538135312 ], [ -39493.30522165093862, 43388.482848621701123 ], [ -39403.19287408443779, 43424.752819273206114 ], [ -39312.462815490434878, 43459.448675258252479 ], [ -39221.142540662069223, 43492.559902361412242 ], [ -39129.259723251299874, 43524.076466572412755 ], [ -39036.842207382753259, 43553.988817126853974 ], [ -38943.917999215780583, 43582.287889400482527 ], [ -38850.515258457555319, 43608.965107656091277 ], [ -38756.662289829517249, 43634.012387642360409 ], [ -38662.387534489942482, 43657.422139043650532 ], [ -38567.719561415164208, 43679.187267780209368 ], [ -38472.687058742012596, 43699.301178157933464 ], [ -38377.318825074195047, 43717.757774867139233 ], [ -38281.643760755177937, 43734.551464829673932 ], [ -38185.690859110240126, 43749.677158893842716 ], [ -38089.48919766034669, 43763.130273376627883 ], [ -37993.067929310527688, 43774.906731452705571 ], [ -37896.456273515359499, 43785.00296438991063 ], [ -37799.683507424357231, 43793.415912630698585 ], [ -37702.778957009810256, 43800.143026719291811 ], [ -37605.771988179876644, 43805.182268074284366 ], [ -37508.691997879526753, 43808.532109606407175 ], [ -37411.568405182137212, 43810.191536181315314 ], [ -37314.430642374325544, 43810.160044927164563 ], [ -37217.308146036812104, 43808.437645387049997 ], [ -37120.230348123972362, 43805.024859516110155 ], [ -37023.226667044807982, 43799.922721523318614 ], [ -36926.326498747970618, 43793.132777558108501 ], [ -36829.559207813661487, 43784.657085241815366 ], [ -36732.954118554982415, 43774.498213044156728 ], [ -36636.540506131517759, 43762.659239504842844 ], [ -36540.347587677817501, 43749.143752300704364 ], [ -36444.40451344941539, 43733.955847158453253 ], [ -36348.740357989197946, 43717.100126613528118 ], [ -36253.384111316612689, 43698.581698615336791 ], [ -36158.36467014261143, 43678.406174979369098 ], [ -36063.710829112736974, 43656.579669686550915 ], [ -35969.451272081263596, 43633.108797030501592 ], [ -35875.61456341882149, 43608.000669613145874 ], [ -35782.229139356284577, 43581.262896189276944 ], [ -35689.323299367446452, 43552.903579360849108 ], [ -35596.925197593198391, 43522.931313121523999 ], [ -35505.062834309654136, 43491.355180252401624 ], [ -35413.764047443022719, 43458.184749569518317 ], [ -35323.056504133579438, 43423.430073024173907 ], [ -35232.96769235143438, 43387.101682656764751 ], [ -35143.524912566594139, 43349.210587405163096 ], [ -35054.755269475841487, 43309.768269768559549 ], [ -34966.685663788943202, 43268.786682327852759 ], [ -34879.342784076667158, 43226.278244123495824 ], [ -34792.753098683097051, 43182.255836892079969 ], [ -34706.942847704674932, 43136.732801162623218 ], [ -34621.938035038401722, 43089.722932213880995 ], [ -34537.764420501647692, 43041.240475893842813 ], [ -34454.447512025915785, 42991.300124302651966 ], [ -34372.012557926893351, 42939.91701134032337 ], [ -34290.484539253266121, 42887.106708120605617 ], [ -34209.888162216433557, 42832.885218252267805 ], [ -34130.247850703555741, 42777.26897298941185 ], [ -34051.587738876172807, 42720.274826252141793 ], [ -33973.931663856572413, 42661.920049519154418 ], [ -33897.303158504233579, 42602.222326593808248 ], [ -33821.725444284384139, 42541.199748245213414 ], [ -33747.221424231058336, 42478.870806726052251 ], [ -33673.813676006495371, 42415.254390168644022 ], [ -33601.524445059265418, 42350.36977686114551 ], [ -33530.375637882993033, 42284.236629405429994 ], [ -33460.38881537783891, 42216.874988758558175 ], [ -33391.585186316697218, 42148.305268159572734 ], [ -33323.985600918080308, 42078.548246943486447 ], [ -33257.610544527698949, 42007.625064244319219 ], [ -33192.480131410578906, 41935.557212589097617 ], [ -33128.614098655656562, 41862.366531384766859 ], [ -33066.031800194643438, 41788.075200300023425 ], [ -33004.752200937044108, 41712.705732543952763 ], [ -32944.793871023022803, 41636.28096804364759 ], [ -32886.174980195901298, 41558.824066522836802 ], [ -32828.913292296048894, 41480.358500483547687 ], [ -32773.026159877714235, 41400.908048093006073 ], [ -32718.530518950508849, 41320.49678597793536 ], [ -32665.442883847135818, 41239.149081928364467 ], [ -32613.779342218891543, 41156.889587513229344 ], [ -32563.555550160483108, 41073.743230610001774 ], [ -32514.786727465590957, 40989.735207850499137 ], [ -32467.487653014693933, 40904.890976985378074 ], [ -32421.672660296469985, 40819.236249169363873 ], [ -32377.355633064173162, 40732.79698116981308 ], [ -32334.550001128343865, 40645.599367500748485 ], [ -32293.268736286994681, 40557.669832484891231 ], [ -32253.524348394694243, 40469.035022246069275 ], [ -32215.328881571545935, 40379.721796634359634 ], [ -32178.693910553371097, 40289.757221086518257 ], [ -32143.630537184086279, 40199.168558424062212 ], [ -32110.149387051431404, 40107.98326059156534 ], [ -32078.260606266961986, 40016.228960337648459 ], [ -32047.973858391407703, 39923.933462841137953 ], [ -32019.298321506212233, 39831.124737285012088 ], [ -31992.242685432229337, 39737.830908380645269 ], [ -31966.815149096342793, 39644.080247844874975 ], [ -31943.023418046883307, 39549.901165832590777 ], [ -31920.874702118533605, 39455.322202327319246 ], [ -31900.375713247474778, 39360.372018492482312 ], [ -31881.53266343739233, 39265.079387985912035 ], [ -31864.351262876993133, 39169.473188240350282 ], [ -31848.836718209611718, 39073.582391712370736 ], [ -31799.507672194566112, 39001.643803229715559 ], [ -31748.947231176622154, 38930.565275545879558 ], [ -31697.170387080415821, 38860.367884504128597 ], [ -31644.192492512240278, 38791.072444677585736 ], [ -31590.029256207755679, 38722.699503197385638 ], [ -31534.696738374121196, 38655.269333660136908 ], [ -31478.211345927913499, 38588.801930116533185 ], [ -31420.589827630210493, 38523.317001142771915 ], [ -31361.849269120350073, 38458.833963996708917 ], [ -31302.007087849775417, 38395.371938860327646 ], [ -31241.081027917509346, 38332.949743170327565 ], [ -31179.089154808752937, 38271.585886038468743 ], [ -31116.049850038209115, 38211.298562763360678 ], [ -31051.981805699691904, 38152.105649435252417 ], [ -30986.904018923622061, 38094.024697635548364 ], [ -30920.835786244118935, 38037.072929232468596 ], [ -30853.796697877281986, 37981.267231274519872 ], [ -30785.806631912390003, 37926.624150983225263 ], [ -30716.885748417764262, 37873.159890846654889 ], [ -30647.054483462998178, 37820.890303815103834 ], [ -30576.33354305937246, 37769.830888600503386 ], [ -30504.743897020187433, 37719.996785080766131 ], [ -30432.306772742937028, 37671.402769810643804 ], [ -30359.043648915027006, 37624.063251640225644 ], [ -30284.976249145067413, 37577.99226744248881 ], [ -30210.126535521460028, 37533.20347795120324 ], [ -30134.516702100343537, 37489.710163710253255 ], [ -30058.169168324693601, 37447.525221135831089 ], [ -29981.106572376658733, 37406.66115869240457 ], [ -29903.351764464965527, 37367.130093183783174 ], [ -29824.927800049525104, 37328.943746160315641 ], [ -29745.857933005117957, 37292.113440443274158 ], [ -29666.165608726289065, 37256.650096767458308 ], [ -29585.874457175435964, 37222.564230543037411 ], [ -29505.008285876170703, 37189.86594873759168 ], [ -29423.591072854029335, 37158.564946879210765 ], [ -29341.646959526638966, 37128.67050618166104 ], [ -29259.200243545430567, 37100.19149079235649 ], [ -29176.275371591000294, 37073.136345163984515 ], [ -29092.896932124331215, 37047.513091550630634 ], [ -29009.089648095938173, 37023.329327629049658 ], [ -28924.878369615133124, 37000.592224245825491 ], [ -28840.288066581615567, 36979.308523291139863 ], [ -28755.343821281509008, 36959.484535699666594 ], [ -28670.070820950106281, 36941.126139579326264 ], [ -28584.494350303462852, 36924.238778468279634 ], [ -28498.639784041100938, 36908.827459720909246 ], [ -28412.532579322054517, 36894.896753023014753 ], [ -28326.198268216412544, 36882.450789036825881 ], [ -28239.662450134703249, 36871.493258176262316 ], [ -28152.950784237273183, 36862.027409512593294 ], [ -28066.088981825971132, 36854.056049811086268 ], [ -27979.102798720356077, 36847.581542698753765 ], [ -27892.018027620724752, 36842.605807963489497 ], [ -27804.860490460177971, 36839.130320984841092 ], [ -27717.656030748039484, 36837.156112296506763 ], [ -27630.430505906871986, 36836.683767280803295 ], [ -27543.209779605360382, 36837.71342599507625 ], [ -27456.019714089354238, 36840.244783130154246 ], [ -27368.886162513317686, 36844.277088100912806 ], [ -27281.834961274493253, 36849.80914526880224 ], [ -27194.891922352020629, 36856.839314296383236 ], [ -27108.082825653298642, 36865.365510633717349 ], [ -27021.433411369860551, 36875.385206136459601 ], [ -26934.969372345018201, 36886.895429815500393 ], [ -26848.716346455559687, 36899.892768717894796 ], [ -26762.69990900974517, 36914.373368938846397 ], [ -24747.438154421120998, 36962.355791667141602 ] ] ] } },
{ "type": "Feature", "properties": { "fid": 2, "feature_type": "plateau", "target_elevation_m": 1900, "amplitude_scale": 0.3, "edge_transition_km": 10, "name": "Central plateau" }, "geometry": { "type": "Polygon", "coordinates": [ [ [ 14838.060596426861593, -12459.539618482493097 ], [ 14967.288899043714991, -12410.151981946357409 ], [ 15095.639679694291772, -12358.52669796412556 ], [ 15223.074195858276653, -12304.679349562280549 ], [ 15349.553981588625902, -12248.626190494627735 ], [ 15475.040859122465918, -12190.384140336122073 ], [ 15599.496950405002281, -12129.970779375722486 ], [ 15722.884688522963188, -12067.404343309792239 ], [ 15845.166829044126644, -12002.703717737691477 ], [ 15966.306461259497155, -11935.888432461166303 ], [ 16086.267019324768626, -11866.978655589322443 ], [ 16205.012293297666474, -11795.995187450887897 ], [ 16322.50644006787843, -11722.95945431567452 ], [ 16438.713994176257984, -11647.893501927075704 ], [ 16553.599878520006314, -11570.819988847595596 ], [ 16667.129414940682182, -11491.762179619379822 ], [ 16779.268334691740165, -11410.743937741855916 ], [ 16889.98278878250494, -11327.789718468557112 ], [ 16999.239358195460227, -11242.924561425334105 ], [ 17107.005063973727374, -11156.174083052186688 ], [ 17213.247377175732254, -11067.564468870958081 ], [ 17317.934228694008198, -10977.122465581283905 ], [ 17421.034018935220956, -10884.875372987124138 ], [ 17522.515627358487109, -10790.851035756353667 ], [ 17622.348421869035519, -10695.077835015888922 ], [ 17720.502268064490636, -10597.584679784878972 ], [ 17816.94753833089635, -10498.40099824855497 ], [ 17911.655120785762847, -10397.556728875362751 ], [ 18004.596428065477085, -10295.082311380083411 ], [ 18095.743405954337504, -10191.008677535644892 ], [ 18185.068541852691851, -10085.367241836396715 ], [ 18272.544873081591504, -9978.189892015687292 ], [ 18358.145995021423005, -9869.508979420599644 ], [ 18441.846069082119357, -9759.357309246734076 ], [ 18523.619830502506375, -9647.768130635990019 ], [ 18603.44259597643395, -9534.775126640375674 ], [ 18681.290271103411214, -9420.412404054806757 ], [ 18757.139357661446411, -9304.714483122017555 ], [ 18830.966960699988704, -9187.716287112667487 ], [ 18902.750795450716396, -9069.453131783804565 ], [ 18972.469194054174295, -8949.960714718836243 ], [ 19040.101112100182945, -8829.275104552270932 ], [ 19105.626134980080678, -8707.432730082435228 ], [ 19169.024484048830345, -8584.470369275499252 ], [ 19230.277022595197195, -8460.425138164082455 ], [ 19289.365261618120712, -8335.334479643837767 ], [ 19346.271365407610574, -8209.236152171351932 ], [ 19400.978156928427779, -8082.168218366805377 ], [ 19453.469123004950234, -7954.169033524822225 ], [ 19503.728419305658463, -7825.277234036972004 ], [ 19551.740875125720777, -7695.531725729419122 ], [ 19597.49199796625544, -7564.971672119256255 ], [ 19640.967977908872854, -7433.636482593036817 ], [ 19682.155691784180817, -7301.565800511112684 ], [ 19721.042707132990472, -7168.799491241328724 ], [ 19757.617285959055152, -7035.37763012571304 ], [ 19791.868388272152515, -6901.340490383788165 ], [ 19823.785675420498592, -6766.728530956148461 ], [ 19853.35951321146058, -6631.582384291980816 ], [ 19880.580974819611583, -6495.942844084212993 ], [ 19905.441843481301476, -6359.850852955988557 ], [ 19927.934614974867145, -6223.347490102185475 ], [ 19948.052499885758152, -6086.473958889716414 ], [ 19965.789425655941159, -5949.271574420343313 ], [ 19981.140038416870084, -5811.781751059766975 ], [ 19994.099704605559964, -5674.04598993675063 ], [ 20004.664512363207905, -5536.105866416063691 ], [ 20012.831272715997329, -5398.003017549001015 ], [ 20018.597520537674427, -5259.779129505299352 ], [ 20021.961515293653065, -5121.475924990218118 ], [ 20022.922241566375305, -4983.13515065059164 ], [ 20021.479409361843864, -4844.798564473658189 ], [ 20017.633454197122774, -4706.507923182464765 ], [ 20011.385536968904489, -4568.304969631652057 ], [ 20002.7375436030743, -4430.231420207430347 ], [ 19991.692084485461237, -4292.328952235534416 ], [ 19978.252493673888239, -4154.639191400981872 ], [ 19962.422827891787165, -4017.203699183412482 ], [ 19944.20786530370242, -3880.063960311802475 ], [ 19923.613104072977876, -3743.26137024235959 ], [ 19900.644760702169151, -3606.837222663350985 ], [ 19875.309768156577775, -3470.832697030658892 ], [ 19847.615773771573004, -3335.28884613781338 ], [ 19817.571136944221507, -3200.246583724258926 ], [ 19785.184926610043476, -3065.74667212559325 ], [ 19750.466918505535432, -2931.829709969509622 ], [ 19713.427592217405618, -2798.536119921150203 ], [ 19674.078128019307769, -2665.90613648157796 ], [ 19632.430403497088264, -2533.979793843043353 ], [ 19588.496989963565284, -2402.796913804712403 ], [ 19542.291148663876811, -2272.397093752510045 ], [ 19493.826826772608911, -2142.819694706696282 ], [ 19443.118653183839342, -2014.103829440794925 ], [ 19390.181934095438919, -1886.288350675449237 ], [ 19335.032648388911184, -1759.411839350781975 ], [ 19277.687442806185572, -1633.512592980783211 ], [ 19218.163626924819255, -1508.628614093257511 ], [ 19156.479167933128338, -1384.797598758806544 ], [ 19092.652685206805472, -1262.056925212320493 ], [ 19026.703444688693708, -1140.443642570403426 ], [ 18958.651353073382779, -1019.994459648144129 ], [ 18888.516951798395894, -900.745733878609826 ], [ 18816.321410843785998, -782.733460338396981 ], [ 18742.086522342007811, -665.993260882565664 ], [ 18665.834693999982846, -550.560373392228939 ], [ 18587.588942335358297, -436.46964113804097 ], [ 18507.372885729022528, -323.755502262797563 ], [ 18425.210737295896251, -212.451979386333733 ], [ 18341.12729757625857, -102.592669335830578 ], [ 18255.147947049717914, 5.78926699533622 ], [ 18167.298638474163454, 112.661114657175858 ], [ 18077.605889051941631, 217.99061451804937 ], [ 17986.096772425687959, 321.745973002038227 ], [ 17892.798910506167886, 423.895871685808743 ], [ 17797.740465134644182, 524.409476752027331 ], [ 17700.950129582262889, 623.256448296513554 ], [ 17602.457119889029855, 720.406949486303347 ], [ 17502.29116604497176, 815.831655565852088 ], [ 17400.482503016188275, 909.501762708686329 ], [ 17297.061861618458352, 1001.388996711792061 ], [ 17192.060459241198259, 1091.465621530149292 ], [ 17085.509990424510761, 1179.704447648828136 ], [ 16977.442617292239447, 1266.078840290101652 ], [ 16867.890959843869496, 1350.562727453124353 ], [ 16756.888086108236166, 1433.130607783728919 ], [ 16644.467502161951415, 1513.757558271982816 ], [ 16530.663142015670019, 1592.419241775161026 ], [ 16415.509357371134683, 1669.091914363886644 ], [ 16299.040907252150646, 1743.752432489204693 ], [ 16181.292947512647515, 1816.378259968431848 ], [ 16062.301020224891545, 1886.947474787674764 ], [ 15942.101042951189811, 1955.438775718962461 ], [ 15820.729297902198596, 2021.831488749995515 ], [ 15698.222420985188364, 2086.105573324568468 ], [ 15574.617390745552257, 2148.241628391791892 ], [ 15449.951517204859556, 2208.220898262265109 ], [ 15324.262430598897481, 2266.02527826946698 ], [ 15197.58807001900459, 2321.637320234622166 ], [ 15069.966671960230087, 2375.040237733412141 ], [ 14941.436758779680531, 2426.217911162933888 ], [ 14812.037127068597329, 2475.15489260738741 ], [ 14681.80683594166112, 2521.83641050100232 ], [ 14550.785195247039155, 2566.248374086821968 ], [ 14419.011753700766349, 2608.377377669979069 ], [ 14286.526286949007044, 2648.21070466418405 ], [ 14153.368785561833647, 2685.736331430217433 ], [ 14019.579442962120083, 2720.942930905242974 ], [ 13885.198643293204441, 2753.819876021870186 ], [ 13750.266949228998783, 2784.357242915924871 ], [ 13614.825089730182299, 2812.545813921947229 ], [ 13478.913947750228544, 2838.377080355539874 ], [ 13342.574547894928401, 2861.843245081698115 ], [ 13205.848044039170418, 2882.937224868366684 ], [ 13068.775706904698382, 2901.652652524508085 ], [ 12931.398911602587759, 2917.983878822026782 ], [ 12793.759125144229984, 2931.925974200979908 ], [ 12655.897893924557138, 2943.47473025756517 ], [ 12517.856831181326925, 2952.62666101441755 ], [ 12379.677604434211389, 2959.379003972848295 ], [ 12241.401922907516564, 2963.729720946701491 ], [ 12103.071524940294694, 2965.677498677576295 ], [ 11964.72816538769257, 2965.221749231237482 ], [ 11826.413603017288551, 2962.362610175075133 ], [ 11688.169587904274522, 2957.100944536587122 ], [ 11550.037848829237191, 2949.438340542872538 ], [ 11412.060080682387706, 2939.377111141226123 ], [ 11274.277931878003074, 2926.920293300978301 ], [ 11136.732991782913814, 2912.071647096791821 ], [ 10999.466778162808623, 2894.835654573689681 ], [ 10528.795559675963887, 2877.946641110484052 ], [ 10057.904261225825394, 2869.113763234166981 ], [ 9586.9307637016027, 2868.339607284862723 ], [ 9116.012972061087567, 2875.624399941865704 ], [ 8645.288774950935476, 2890.966008157291071 ], [ 8174.896004331703807, 2914.359939780635614 ], [ 7704.972395119524663, 2945.799344874125381 ], [ 7235.655544856161214, 2985.275017718417075 ], [ 6767.082873419311909, 3032.775399508136616 ], [ 6299.391582784925049, 3088.286581736367225 ], [ 5832.718616853318053, 3151.792310267195717 ], [ 5367.200621350863003, 3223.273990095036424 ], [ 4902.973903818984581, 3302.710690789437649 ], [ 4440.174393702174712, 3390.079152623642585 ], [ 3978.937602546725429, 3485.353793385274912 ], [ 3519.39858432181336, 3588.506715866988088 ], [ 3061.69189587458095, 3699.507716035015619 ], [ 2605.951557530769605, 3818.324291873166658 ], [ 2152.31101385245347, 3944.921652899669425 ], [ 1700.903094564361709, 4079.262730354148516 ], [ 1251.859975660230702, 4221.308188051621983 ], [ 805.313140700571239, 4371.016433900487755 ], [ 361.393342313192989, 4528.343632081043324 ], [ -79.769436092256001, 4693.243715880955278 ], [ -518.046018384515264, 4865.668401183989772 ], [ -953.308073534550203, 5045.567200608005805 ], [ -1385.428153191951424, 5232.887438288067642 ], [ -1814.279729002872045, 5427.574265300387196 ], [ -2239.737229658569049, 5629.570675722545275 ], [ -2661.676077663754768, 5838.817523325287766 ], [ -3079.972725813897341, 6055.253538891054632 ], [ -3494.504693370879977, 6278.815348154093954 ], [ -3905.150601926383388, 6509.437490356991475 ], [ -4311.790210942484919, 6747.052437418111367 ], [ -4714.304452959098853, 6991.590613704393036 ], [ -5112.57546845790057, 7242.980416403668642 ], [ -5506.486640372604597, 7501.148236490553245 ], [ -5599.463952926235834, 7575.165817932337632 ], [ -5693.714815332470607, 7647.554753190895099 ], [ -5789.210702729640616, 7718.293133879272318 ], [ -5885.92271345140216, 7787.359551148017999 ], [ -5983.82157777377688, 7854.733102164541378 ], [ -6082.877666773580131, 7920.393396439314529 ], [ -6183.061001295565802, 7984.320561997020377 ], [ -6284.341261025567292, 8046.495251390775593 ], [ -6386.687793666888865, 8106.898647557594813 ], [ -6490.069624217164346, 8165.512469513347241 ], [ -6594.455464342897358, 8222.318977885464847 ], [ -6699.813721848815476, 8277.300980281732336 ], [ -6806.112510239197945, 8330.441836493533629 ], [ -6913.319658368263845, 8381.725463531984133 ], [ -7021.402720176718503, 8431.13634049542452 ], [ -7130.328984511497765, 8478.659513266782596 ], [ -7240.065485025738781, 8524.280599039422668 ], [ -7350.579010155990545, 8567.985790670074493 ], [ -7461.836113173636477, 8609.761860857532156 ], [ -7573.803122307488593, 8649.596166145893221 ], [ -7686.446150934494653, 8687.476650751057605 ], [ -7799.731107835459625, 8723.391850209407494 ], [ -7913.623707512701003, 8757.330894847496893 ], [ -8028.089480566492966, 8789.283513071743073 ], [ -8143.093784127170693, 8819.240034477104928 ], [ -8258.60181233973708, 8847.191392773820553 ], [ -8374.578606897795908, 8873.129128531296374 ], [ -8490.989067623615483, 8897.045391738342005 ], [ -8607.79796309115045, 8918.932944178966864 ], [ -8724.96994128876031, 8938.785161623007298 ], [ -8842.469540318441432, 8956.59603583093849 ], [ -8960.261199128306544, 8972.36017637227269 ], [ -9078.309268275079376, 8986.07281225693805 ], [ -9196.57802071333208, 8997.729793379230614 ], [ -9315.031662608223996, 9007.327591773831955 ], [ -9433.634344168431198, 9014.863302683537768 ], [ -9552.35017049603448, 9020.334645438379084 ], [ -9671.143212450044302, 9023.739964145870545 ], [ -9789.977517520292167, 9025.078228192147435 ], [ -9908.817120708403309, 9024.349032553898724 ], [ -10027.626055412532878, 9021.552597920926928 ], [ -10146.368364312600534, 9016.689770629376653 ], [ -10265.008110252712868, 9009.762022405575408 ], [ -10383.509387117475853, 9000.771449920628584 ], [ -10501.836330698930396, 8989.720774155859544 ], [ -10619.953129550778613, 8976.613339579314925 ], [ -10737.824035826670297, 8961.453113133560691 ], [ -10855.413376099217203, 8944.244683035100024 ], [ -10972.685562156500964, 8924.993257385753168 ], [ -11089.605101772780472, 8903.70466259643581 ], [ -11206.136609450155447, 8880.385341623805289 ], [ -11322.244817127924762, 8855.042352020313047 ], [ -11437.894584856403526, 8827.683363798245409 ], [ -11553.050911431975692, 8798.316657108411164 ], [ -11667.678944990137097, 8766.951119734159874 ], [ -11781.743993553362088, 8733.596244401524018 ], [ -11895.211535530565016, 8698.262125906247093 ], [ -12008.047230165002475, 8660.959458058618111 ], [ -12120.216927927445795, 8621.699530447009238 ], [ -12231.686680851475103, 8580.494225021098828 ], [ -12342.422752807771758, 8537.356012495820323 ], [ -12452.391629714307783, 8492.297948577119314 ], [ -12561.560029679316358, 8445.333670010673814 ], [ -12669.894913073998396, 8396.477390454745546 ], [ -12777.36349253192202, 8345.743896178453724 ], [ -12883.93324287204814, 8293.148541586724605 ], [ -12989.571910942428076, 8238.707244573310163 ], [ -13094.247525381564628, 8182.436481703275604 ], [ -13197.928406294488013, 8124.353283226377243 ], [ -13300.583174840619904, 8064.47522792289783 ], [ -13402.180762730531569, 8002.820437783459056 ], [ -13502.690421628702097, 7939.40757252442836 ], [ -13602.081732459451814, 7874.255823940588925 ], [ -13700.324614613224185, 7807.384910096776366 ], [ -13797.389335050429509, 7738.815069360241068 ], [ -13893.246517300098276, 7668.567054275540613 ], [ -13987.86715035061934, 7596.66212528381493 ], [ -14081.222597429876259, 7523.122044288355937 ], [ -14173.284604672109708, 7447.969068068399793 ], [ -14264.025309668912087, 7371.225941543152658 ], [ -14353.417249901725882, 7292.915890888082686 ], [ -14441.433371053335577, 7213.062616505551887 ], [ -14528.047035195808348, 7131.690285851935187 ], [ -14613.232028852416988, 7048.823526123380361 ], [ -14696.962570931103983, 6964.487416802427106 ], [ -14779.213320527083852, 6878.707482067746241 ], [ -14859.959384592224524, 6791.509683069292805 ], [ -14939.176325468886716, 6702.92041007120315 ], [ -15016.840168285940308, 6612.966474464835301 ], [ -15092.927408214711249, 6521.675100654337257 ], [ -15167.415017582687142, 6429.073917817237088 ], [ -15240.280452842798695, 6335.190951542511357 ], [ -15311.501661396177951, 6240.054615348695734 ], [ -15381.057088266354185, 6143.693702084582583 ], [ -15448.925682622819295, 6046.137375215105749 ], [ -15515.086904152027273, 5947.415159995078284 ], [ -15579.520729273892357, 5847.556934533418826 ], [ -15642.207657201877737, 5746.592920750596022 ], [ -15703.128715844888575, 5644.55367523201312 ], [ -15762.265467549135792, 5541.47007998011668 ], [ -15819.600014678257139, 5437.373333068000647 ], [ -15875.115005030016619, 5332.294939197374333 ], [ -15928.793637087906973, 5226.266700163709174 ], [ -15980.619665106112734, 5119.320705231487409 ], [ -16030.57740402624222, 5011.48932142243666 ], [ -16078.651734224393294, 4902.805183719709021 ], [ -16124.828106087083142, 4793.301185190955948 ], [ -16169.092544414657823, 4683.01046703330212 ], [ -16211.431652650862816, 4571.966408543215948 ], [ -16251.832616937288549, 4460.202617014325369 ], [ -16290.283209991473996, 4347.752917566225733 ], [ -16326.771794807449623, 4234.651342907364779 ], [ -16361.287328177677409, 4120.932123035105178 ], [ -16393.819364035247418, 4006.629674876073295 ], [ -16424.358056615375972, 3891.778591869933734 ], [ -16452.894163435183145, 3776.413633499746538 ], [ -16479.41904809094558, 3660.569714772067528 ], [ -16503.924682871867844, 3544.281895649983198 ], [ -16526.403651189659286, 3427.585370442270687 ], [ -16546.849149823159678, 3310.51545715190332 ], [ -16565.254990977315174, 3193.107586787116816 ], [ -16581.615604155900655, 3075.397292638273939 ], [ -16595.926037847439147, 2957.420199523776773 ], [ -16608.181961023739859, 2839.212013008277154 ], [ -16618.379664450701966, 2720.8085085964467 ], [ -16626.516061810889369, 2602.245520905584272 ], [ -16632.588690637618129, 2483.558932820327755 ], [ -16636.595713060196431, 2364.784664632762997 ], [ -16638.535916360171541, 2245.958663171208627 ], [ -16638.408713338343659, 2127.116890920879086 ], [ -9345.080458636657568, -4398.492600127996411 ], [ -2819.47096758778207, -2863.055072822375223 ], [ 635.263468849880155, -10924.102091176871909 ], [ -900.174058455741033, -18985.149109531383147 ], [ 8312.451105377956992, -19752.867873184179189 ], [ 17525.076269211684121, -14762.695909440924879 ], [ 14838.060596426861593, -12459.539618482493097 ] ] ] } },
{ "type": "Feature", "properties": { "fid": 3, "feature_type": "amplitude_zone", "target_elevation_m": null, "amplitude_scale": 0.3, "edge_transition_km": 12, "name": "North plains" }, "geometry": { "type": "Polygon", "coordinates": [ [ [ 19060.513796517305309, 27845.695473290004884 ], [ 31344.01401496224571, 25926.398564157978399 ], [ 37485.764124184730463, 29764.992382422031369 ], [ 42859.795469754404621, 35906.74249164450157 ], [ 43627.514233407215215, 46270.945800957430038 ], [ 45930.670524365617894, 57019.008492096756527 ], [ 47082.248669844848337, 66231.63365593047638 ], [ 42092.076706101594027, 72373.38376515294658 ], [ 34414.889069573488086, 69686.368092368124053 ], [ 30192.435869483044371, 64696.196128624855191 ], [ 21747.529469302127836, 60473.7429285344042 ], [ 15605.779360079672188, 57402.867873923161824 ], [ 12918.763687294820556, 51644.97714652709692 ], [ 9080.169869030767586, 45503.227037304619444 ], [ 9464.029250857187435, 36674.461255297312164 ], [ 11383.326159989199368, 31300.429909727638005 ], [ 19060.513796517305309, 27845.695473290004884 ] ] ] } }
]
}
