{
"type": "FeatureCollection",
"name": "terrain_ridges_v2",
"features": [
{ "type": "Feature", "properties": { "fid": 2, "feature_type": "ridge", "peak_elevation_m": 3794, "falloff_km": 18, "name": "Spine" }, "geometry": { "type": "LineString", "coordinates": [ [ -19859.228838975497638, 26646.134905082522891 ], [ -19662.323259256874735, 26353.084206448846089 ], [ -19460.410056192627962, 26063.461041418227978 ], [ -19253.548879016452702, 25777.350970516657981 ], [ -19041.800838693430705, 25494.838516431223979 ], [ -18825.228489866600285, 25216.007139040433685 ], [ -18603.895812377060793, 24940.939210758482659 ], [ -18377.868192363035632, 24669.715992200755863 ], [ -18147.212402943496272, 24402.41760817784234 ], [ -17911.996584492015245, 24139.123024025007908 ], [ -17672.29022450674529, 23879.910022274267249 ], [ -17428.164137082407251, 23624.855179675862018 ], [ -17179.690441990365798, 23374.033844575911644 ], [ -16926.942543372999353, 23127.52011465702526 ], [ -16669.99510805864702, 22885.38681504833221 ], [ -16408.924043503509893, 22647.705476811483095 ], [ -16143.806475367058738, 22414.546315808896907 ], [ -15874.720724727552806, 22185.978211960638873 ], [ -15601.746284944427316, 21962.068688895844389 ], [ -15324.963798174338081, 21742.8838940049136 ], [ -15044.455031547848193, 21528.488578898213746 ], [ -14760.3028530137708, 21318.946080277168221 ], [ -14472.591206858291116, 21114.318301223298477 ], [ -14181.405088906150922, 20914.665692910817597 ], [ -13886.830521411146037, 20720.047236748130672 ], [ -13588.954527643443726, 20530.520426953538845 ], [ -13287.865106181116062, 20346.141253570269328 ], [ -12983.651204913621768, 20166.964185925924539 ], [ -12676.402694764787157, 19993.042156541101576 ], [ -12366.210343143115097, 19824.426545492089645 ], [ -12053.165787127281874, 19661.167165232134721 ], [ -11737.361506394672688, 19503.312245875866211 ], [ -11418.890795901039382, 19350.90842095111293 ], [ -11097.847738319280325, 19204.000713622444891 ], [ -10774.327176245507871, 19062.632523390406277 ], [ -10448.424684180652548, 18926.845613270430476 ], [ -10120.236540295820305, 18796.680097455224313 ], [ -9789.859697989770211, 18672.174429464183049 ], [ -9457.391757246936322, 18553.365390783488692 ], [ -9122.93093580441564, 18440.288080000085756 ], [ -8786.576040136473239, 18332.97590243286686 ], [ -8448.426436265104712, 18231.4605602640695 ], [ -8108.582020405324329, 18135.772043173790735 ], [ -7767.143189453795458, 18045.938619480468333 ], [ -7424.21081132956715, 17961.986827789802192 ], [ -7079.886195175656212, 17883.941469154749939 ], [ -6734.271061430280497, 17811.825599748794048 ], [ -6387.467511776588253, 17745.66052405465598 ], [ -6039.577998979766562, 17685.465788570552832 ], [ -5690.705296620419176, 17631.259176035749988 ], [ -5340.952468733186834, 17583.056700177185121 ], [ -4990.422839359544923, 17540.87260097869148 ], [ -4639.219962023798871, 17504.719340474221099 ], [ -4287.44758914128488, 17474.607599066304829 ], [ -3935.209641367815493, 17450.546272370840597 ], [ -3582.610176899415364, 17432.542468589166674 ], [ -3229.753360731436715, 17420.601506408132991 ], [ -2876.743433886114872, 17414.726913428883563 ], [ -2523.684682617667931, 17414.920425124691974 ], [ -2170.681407604034121, 17421.181984328301041 ], [ -1817.837893134477781, 17433.509741248795763 ], [ -1120.942403851655399, 17408.873394274098246 ], [ -424.57330047161895, 17372.262679547991866 ], [ 271.063683327551644, 17323.688413255385967 ], [ 965.763030163543135, 17263.164946065222466 ], [ 1659.319499667341006, 17190.710158890735329 ], [ 2351.528189118964292, 17106.345457606734271 ], [ 3042.184593983457489, 17010.095766725538851 ], [ 3731.084668329233864, 16901.989522033309186 ], [ 4418.024885110936339, 16782.058662189065217 ], [ 5102.802296298992587, 16650.338619288773771 ], [ 5785.214592838117824, 16506.868308397391957 ], [ 6465.060164417031046, 16351.690116051900986 ], [ 7142.138159031739633, 16184.849887738706457 ], [ 7816.248542324787195, 16006.396914349152212 ], [ 8487.192156682951463, 15816.383917617149564 ], [ 9154.770780075899893, 15614.867034543185582 ], [ 9818.787184618455285, 15401.905800809316133 ], [ 10479.045194839134638, 15177.563133190113149 ], [ 11135.349745637795422, 14941.905310964666569 ], [ 11787.506939915198018, 14695.001956335170689 ], [ 12435.324105857527684, 14436.926013857922953 ], [ 13078.609853858913993, 14167.753728892752406 ], [ 13717.174133065116621, 13887.564625077251549 ], [ 14350.82828752173009, 13596.4414808324982 ], [ 14979.38511191024736, 13294.470304907230457 ], [ 15602.658906855576788, 12981.740310967532423 ], [ 16220.465533788632456, 12658.343891239866934 ], [ 16832.622469347799779, 12324.376589214833075 ], [ 17438.948859303236532, 11979.937071420081338 ], [ 18039.265571987994917, 11625.127098270462739 ], [ 18633.395251220306818, 11260.051494004186679 ], [ 19221.162368701250671, 10884.818115713806037 ], [ 19802.393275872440427, 10499.537821481124411 ], [ 20376.916255218362494, 10104.324437625578867 ], [ 20944.561570998186653, 9699.294725075636961 ], [ 21505.161519392109767, 9284.568344873219758 ], [ 22058.550478047374781, 8860.267822821326263 ], [ 22604.564955009369442, 8426.518513285293011 ], [ 23143.043637023300107, 7983.44856215838081 ], [ 23673.827437192216166, 7531.188869002657157 ], [ 24196.759541977262415, 7069.873048376321094 ], [ 24711.685457526327809, 6599.637390358959237 ], [ 25218.453055317328108, 6120.620820286269009 ], [ 25716.912617102731019, 5632.96485770631989 ], [ 26206.916879141932441, 5136.813574569328921 ], [ 26688.321075708561693, 4632.313552663381415 ], [ 27160.982981859699066, 4119.613840308637009 ], [ 27624.762955454494659, 3598.865908322848554 ], [ 28079.523978409724805, 3070.223605271174165 ], [ 28525.131697180091578, 2533.84311201350647 ], [ 28961.454462451307336, 1989.882895562757767 ], [ 29388.363368034308223, 1438.503662267750769 ], [ 29805.732288948962378, 879.868310334484704 ], [ 30213.43791868614062, 314.14188169987392 ], [ 30611.359805637148384, -258.508486727860145 ], [ 30999.380388679615862, -837.913612447722699 ], [ 31377.38503190951451, -1423.902317348853103 ], [ 31745.262058508924383, -2016.301478282966855 ], [ 32102.902783739584265, -2614.936078211467247 ], [ 32450.201547052405658, -3219.629257912089088 ], [ 32787.055743303666532, -3830.202368229751301 ], [ 33113.365853068360593, -4446.475022856277064 ] ] } },
{ "type": "Feature", "properties": { "fid": 3, "feature_type": "ridge", "peak_elevation_m": 1650, "falloff_km": 13, "name": "North branch (Big Brother)" }, "geometry": { "type": "LineString", "coordinates": [ [ -19859.228838975497638, 26646.134905082522891 ], [ -19628.315217395866057, 28219.457768858585041 ], [ -19424.368118474740186, 29796.502953738592623 ], [ -19247.447310802192078, 31376.808291995737818 ], [ -19097.60464266272902, 32959.910660485023982 ], [ -18974.884026840867591, 34545.346116365792113 ], [ -18879.321427751914598, 36132.650033064455783 ], [ -18810.944850902422331, 37721.357236437652318 ], [ -18769.774334682748304, 39311.002141095843399 ], [ -18755.821944494760828, 40901.118886847420072 ], [ -18769.091769215883687, 42491.241475223367161 ], [ -18809.579920000833226, 44080.90390604242566 ], [ -18877.274531421280699, 45669.640313976786274 ], [ -18972.155764943134272, 47256.985105078238121 ], [ -19094.195814740392962, 48842.473093224798504 ], [ -19243.358915843884461, 50425.639636447827797 ], [ -19419.601354622558574, 52006.020773099640792 ], [ -19622.871481594178476, 53583.153357821829559 ], [ -19853.109726561626303, 55156.575197274258244 ], [ -20110.248616070544813, 56725.825185585126746 ] ] } },
{ "type": "Feature", "properties": { "fid": 4, "feature_type": "ridge", "peak_elevation_m": 930, "falloff_km": 10, "name": "West Branch (Little Brother)" }, "geometry": { "type": "LineString", "coordinates": [ [ -19859.228838975497638, 26646.134905082522891 ], [ -20052.735609576164279, 26955.324983318976592 ], [ -20251.550855428031355, 27261.12863399212074 ], [ -20455.615328279578534, 27563.454725601797691 ], [ -20664.868215575104841, 27862.213162983316579 ], [ -20879.247158577258233, 28157.314914156435407 ], [ -21098.688270950355218, 28448.672036857460625 ], [ -21323.126157798931672, 28736.197704746624368 ], [ -21552.493935155842337, 29019.806233282899484 ], [ -21786.723249914146436, 29299.413105258572614 ], [ -22025.744300196747645, 29574.934995985902788 ], [ -22269.485856157851231, 29846.289798128455004 ], [ -22517.87528120989009, 30113.396646169603628 ], [ -22770.838553669742396, 30376.175940511006047 ], [ -23028.300288817648834, 30634.549371193788829 ], [ -23290.183761362372024, 30888.439941235450533 ], [ -23556.410928305835114, 31137.771989575452608 ], [ -23826.902452200440166, 31382.471213622720825 ], [ -24101.577724792172376, 31622.464691398305149 ], [ -24380.354891042363306, 31857.680903266613313 ], [ -24663.150873521044559, 32088.049753248720663 ], [ -24949.881397164568625, 32313.502589911455289 ], [ -25240.461014390130003, 32533.972226825950202 ], [ -25534.803130559710553, 32749.392962589656236 ], [ -25832.820029785842053, 32959.700600405791192 ], [ -26134.422901071524393, 33164.83246721442265 ], [ -26439.521864776499569, 33364.727432369407325 ], [ -26748.025999401950685, 33559.3259258557664 ], [ -27059.843368685724272, 33748.569956041945261 ], [ -27374.881048999937775, 33932.403126961675298 ], [ -27693.045157042826759, 34110.7706551203446 ], [ -28014.240877816595457, 34283.619385820857133 ], [ -28338.372492882903316, 34450.897809004083683 ], [ -28665.343408887594705, 34612.556074599182466 ], [ -28995.056186346148024, 34768.546007379241928 ], [ -29327.412568681280391, 34918.821121317851066 ], [ -29662.313511504074995, 35063.336633442202583 ], [ -29999.659212129834486, 35202.049477178734378 ], [ -30339.349139319951064, 35334.918315187256667 ], [ -30681.282063240876596, 35461.903551679715747 ], [ -31025.356085631276073, 35582.967344220058294 ], [ -31371.46867016838587, 35698.073615001470898 ], [ -31719.516673024503689, 35807.188061597822525 ], [ -32069.396373604533437, 35910.278167186042992 ], [ -32421.003505455406412, 36007.313210236286977 ], [ -32774.233287338167429, 36098.264273667227826 ], [ -33128.980454453463608, 36183.104253463483474 ], [ -33485.139289811188064, 36261.807866752802511 ], [ -33842.603655734768836, 36334.351659340522019 ], [ -34201.267025490968081, 36400.714012699107116 ], [ -34561.022515035496326, 36460.875150410574861 ], [ -34921.76291486518312, 36514.817144060012652 ], [ -35283.38072196712892, 36562.523918578350276 ], [ -35645.768171855263063, 36603.981257032872236 ], [ -36008.817270684929099, 36639.176804863906 ], [ -36372.419827435718616, 36668.100073566623905 ], [ -36736.4674861531239, 36690.742443816605373 ], [ -37100.85175823931786, 36707.097168038540985 ], [ -37465.464054783478787, 36717.15937241697975 ], [ -37830.195718921997468, 36720.926058348821243 ], [ -38194.938058218926017, 36718.396103336854139 ], [ -38559.58237705706415, 36709.570261324333842 ], [ -38924.020009029947687, 36694.451162470249983 ], [ -39288.142349325149553, 36673.043312365552993 ], [ -39651.840887089245371, 36645.353090690434328 ], [ -40015.007237764759338, 36611.388749313176959 ], [ -40377.533175389457028, 36571.16040983099083 ], [ -40739.310664848417218, 36524.680060553757357 ], [ -41100.231894069191185, 36471.961552931417827 ], [ -41460.18930615051795, 36413.020597426148015 ], [ -41819.075631414983945, 36347.874758830526844 ], [ -42176.783919376102858, 36276.543451033139718 ], [ -42533.207570610247785, 36199.047931233071722 ] ] } },
{ "type": "Feature", "properties": { "fid": 5, "feature_type": "ridge", "peak_elevation_m": 2250, "falloff_km": 23, "name": "South Branch" }, "geometry": { "type": "LineString", "coordinates": [ [ 33113.365853068360593, -4446.475022856277064 ], [ 33147.341309945317334, -5668.022675534818518 ], [ 33160.427105453272816, -6889.972658713498276 ], [ 33152.619414276079624, -8111.967764838286712 ], [ 33123.920518803628511, -9333.650773164550628 ], [ 33074.338808464584872, -10554.664554181910717 ], [ 33003.888777274056338, -11774.652174012415344 ], [ 32912.591019596482511, -12993.256998751552601 ], [ 32800.472224125493085, -14210.122798721535219 ], [ 32667.565166082044016, -15424.893852606457585 ], [ 32513.908697633363772, -16637.215051438819501 ], [ 32339.547736535532749, -17846.732002407050459 ], [ 32144.533253002780839, -19053.091132453700993 ], [ 31928.922254807606805, -20255.939791633951245 ], [ 31692.77777061596862, -21454.926356204348849 ], [ 31436.168831562332343, -22649.700331411462685 ], [ 31159.170451070080162, -23839.912453950601048 ], [ 30861.863602923185681, -25025.214794064471789 ], [ 30544.335197595501086, -26205.26085725205121 ], [ 30206.678056844481034, -27379.705685557877587 ], [ 29848.990886577099445, -28548.205958412174368 ], [ 29471.378247995497077, -29710.420092992324498 ], [ 29073.950527031061938, -30866.008344076362846 ], [ 28656.823902075760998, -32014.632903359266493 ], [ 28220.120310020181932, -33155.957998203070019 ], [ 27763.967410608267528, -34289.64998979185475 ], [ 27288.498549119060044, -35415.37747066305019 ], [ 26793.852717386376753, -36532.811361586333078 ], [ 26280.174513168007252, -37641.625007762020687 ], [ 25747.614097875950392, -38741.494274310738547 ], [ 25196.327152680416475, -39832.097641026353813 ], [ 24626.474833000189392, -40913.116296364692971 ] ] } }
]
}
